{
"type": "FeatureCollection",
"name": "Kocaeli_zone",
"crs": { "type": "name", "properties": { "name": "urn:ogc:def:crs:OGC:1.3:CRS84" } },
"features": [
{ "type": "Feature", "properties": { "Name": "TURAS013", "Description": "", "zone_id": 8 }, "geometry": { "type": "Polygon", "coordinates": [ [ [ 26.201, 40.25, 0.0 ], [ 26.282, 40.275, 0.0 ], [ 26.621, 40.374, 0.0 ], [ 27.148, 40.528, 0.0 ], [ 27.441, 40.563, 0.0 ], [ 27.697, 40.594, 0.0 ], [ 28.185, 40.651, 0.0 ], [ 28.725, 40.503, 0.0 ], [ 28.958, 40.565, 0.0 ], [ 30.15, 40.572, 0.0 ], [ 30.68, 40.558, 0.0 ], [ 31.248, 40.419, 0.0 ], [ 31.9, 40.621, 0.0 ], [ 31.886, 40.891, 0.0 ], [ 31.464, 40.826, 0.0 ], [ 30.98, 40.891, 0.0 ], [ 29.656, 40.876, 0.0 ], [ 29.207, 40.918, 0.0 ], [ 29.024, 41.042, 0.0 ], [ 28.587, 41.047, 0.0 ], [ 27.995, 41.025, 0.0 ], [ 27.579, 40.985, 0.0 ], [ 27.275, 40.914, 0.0 ], [ 26.768, 40.798, 0.0 ], [ 26.026, 40.621, 0.0 ], [ 26.201, 40.25, 0.0 ] ] ] } }
]
}
