{
"type": "FeatureCollection",
"name": "TR_AREA_02.05.2023_zoned",
"crs": { "type": "name", "properties": { "name": "urn:ogc:def:crs:OGC:1.3:CRS84" } },
"features": [
{ "type": "Feature", "properties": { "Name": "TURAS004", "Description": "", "zone_id": 1 }, "geometry": { "type": "Polygon", "coordinates": [ [ [ 29.524, 39.726, 0.0 ], [ 29.763, 39.693, 0.0 ], [ 30.333, 39.616, 0.0 ], [ 31.127, 39.374, 0.0 ], [ 31.505, 39.269, 0.0 ], [ 31.796, 39.691, 0.0 ], [ 31.36, 39.796, 0.0 ], [ 30.925, 39.932, 0.0 ], [ 30.303, 40.125, 0.0 ], [ 29.7, 40.301, 0.0 ], [ 28.744, 40.27, 0.0 ], [ 27.916, 39.985, 0.0 ], [ 29.524, 39.726, 0.0 ] ] ] } },
{ "type": "Feature", "properties": { "Name": "TURAS005", "Description": "", "zone_id": 2 }, "geometry": { "type": "Polygon", "coordinates": [ [ [ 36.885, 40.456, 0.0 ], [ 38.01, 40.085, 0.0 ], [ 39.359, 39.634, 0.0 ], [ 39.517, 39.584, 0.0 ], [ 39.72, 39.526, 0.0 ], [ 39.91, 39.475, 0.0 ], [ 40.226, 39.382, 0.0 ], [ 40.467, 39.313, 0.0 ], [ 40.779, 39.617, 0.0 ], [ 40.582, 39.659, 0.0 ], [ 39.84, 39.794, 0.0 ], [ 39.362, 40.007, 0.0 ], [ 37.399, 40.633, 0.0 ], [ 36.362, 41.005, 0.0 ], [ 35.318, 41.284, 0.0 ], [ 33.482, 41.304, 0.0 ], [ 32.199, 40.973, 0.0 ], [ 31.886, 40.891, 0.0 ], [ 31.9, 40.621, 0.0 ], [ 32.835, 40.691, 0.0 ], [ 33.062, 40.809, 0.0 ], [ 34.539, 40.77, 0.0 ], [ 35.477, 40.588, 0.0 ], [ 36.387, 40.415, 0.0 ], [ 36.885, 40.456, 0.0 ] ] ] } },
{ "type": "Feature", "properties": { "Name": "TURAS006", "Description": "", "zone_id": 3 }, "geometry": { "type": "Polygon", "coordinates": [ [ [ 35.904, 39.562, 0.0 ], [ 36.054, 39.496, 0.0 ], [ 38.01, 40.085, 0.0 ], [ 36.885, 40.456, 0.0 ], [ 36.387, 40.415, 0.0 ], [ 35.477, 40.588, 0.0 ], [ 33.668, 39.864, 0.0 ], [ 33.29, 39.446, 0.0 ], [ 33.704, 39.108, 0.0 ], [ 34.787, 39.97, 0.0 ], [ 35.904, 39.562, 0.0 ] ] ] } },
{ "type": "Feature", "properties": { "Name": "TURAS007", "Description": "", "zone_id": 4 }, "geometry": { "type": "Polygon", "coordinates": [ [ [ 33.976, 37.936, 0.0 ], [ 34.672, 37.69, 0.0 ], [ 34.822, 37.96, 0.0 ], [ 34.248, 38.423, 0.0 ], [ 33.704, 39.108, 0.0 ], [ 33.29, 39.446, 0.0 ], [ 32.974, 39.623, 0.0 ], [ 32.726, 39.385, 0.0 ], [ 33.559, 38.3, 0.0 ], [ 33.976, 37.936, 0.0 ] ] ] } },
{ "type": "Feature", "properties": { "Name": "TURAS008", "Description": "", "zone_id": 5 }, "geometry": { "type": "Polygon", "coordinates": [ [ [ 34.622, 36.726, 0.0 ], [ 35.164, 37.803, 0.0 ], [ 35.782, 38.393, 0.0 ], [ 34.946, 38.17, 0.0 ], [ 34.822, 37.96, 0.0 ], [ 34.672, 37.69, 0.0 ], [ 34.479, 37.001, 0.0 ], [ 34.622, 36.726, 0.0 ] ] ] } },
{ "type": "Feature", "properties": { "Name": "TURAS009", "Description": "", "zone_id": 6 }, "geometry": { "type": "Polygon", "coordinates": [ [ [ 34.549, 36.278, 0.0 ], [ 35.191, 35.607, 0.0 ], [ 35.81, 36.119, 0.0 ], [ 36.4, 36.795, 0.0 ], [ 36.617, 37.457, 0.0 ], [ 35.409, 37.464, 0.0 ], [ 35.307, 37.031, 0.0 ], [ 34.755, 36.494, 0.0 ], [ 34.549, 36.278, 0.0 ] ] ] } },
{ "type": "Feature", "properties": { "Name": "TURAS013", "Description": "", "zone_id": 8 }, "geometry": { "type": "Polygon", "coordinates": [ [ [ 26.201, 40.25, 0.0 ], [ 26.282, 40.275, 0.0 ], [ 26.621, 40.374, 0.0 ], [ 27.148, 40.528, 0.0 ], [ 27.441, 40.563, 0.0 ], [ 27.697, 40.594, 0.0 ], [ 28.185, 40.651, 0.0 ], [ 28.725, 40.503, 0.0 ], [ 28.958, 40.565, 0.0 ], [ 30.15, 40.572, 0.0 ], [ 30.68, 40.558, 0.0 ], [ 31.248, 40.419, 0.0 ], [ 31.9, 40.621, 0.0 ], [ 31.886, 40.891, 0.0 ], [ 31.464, 40.826, 0.0 ], [ 30.98, 40.891, 0.0 ], [ 29.656, 40.876, 0.0 ], [ 29.207, 40.918, 0.0 ], [ 29.024, 41.042, 0.0 ], [ 28.587, 41.047, 0.0 ], [ 27.995, 41.025, 0.0 ], [ 27.579, 40.985, 0.0 ], [ 27.275, 40.914, 0.0 ], [ 26.768, 40.798, 0.0 ], [ 26.026, 40.621, 0.0 ], [ 26.201, 40.25, 0.0 ] ] ] } },
{ "type": "Feature", "properties": { "Name": "TURAS014", "Description": "", "zone_id": 9 }, "geometry": { "type": "Polygon", "coordinates": [ [ [ 34.622, 36.726, 0.0 ], [ 34.743, 36.483, 0.0 ], [ 35.307, 37.031, 0.0 ], [ 35.409, 37.464, 0.0 ], [ 36.774, 38.365, 0.0 ], [ 37.556, 38.356, 0.0 ], [ 37.914, 38.723, 0.0 ], [ 38.049, 39.161, 0.0 ], [ 38.444, 39.424, 0.0 ], [ 38.014, 39.41, 0.0 ], [ 36.036, 38.635, 0.0 ], [ 35.782, 38.393, 0.0 ], [ 35.164, 37.803, 0.0 ], [ 34.622, 36.726, 0.0 ] ] ] } },
{ "type": "Feature", "properties": { "Name": "TURAS015", "Description": "", "zone_id": 10 }, "geometry": { "type": "Polygon", "coordinates": [ [ [ 35.409, 37.464, 0.0 ], [ 36.617, 37.457, 0.0 ], [ 36.819, 37.63, 0.0 ], [ 37.907, 38.086, 0.0 ], [ 38.424, 38.72, 0.0 ], [ 39.146, 39.252, 0.0 ], [ 38.63, 39.243, 0.0 ], [ 38.444, 39.424, 0.0 ], [ 38.049, 39.161, 0.0 ], [ 37.914, 38.723, 0.0 ], [ 37.556, 38.356, 0.0 ], [ 36.774, 38.365, 0.0 ], [ 35.409, 37.464, 0.0 ] ] ] } },
{ "type": "Feature", "properties": { "Name": "TURAS016", "Description": "", "zone_id": 11 }, "geometry": { "type": "Polygon", "coordinates": [ [ [ 35.782, 38.393, 0.0 ], [ 36.036, 38.635, 0.0 ], [ 38.014, 39.41, 0.0 ], [ 38.444, 39.424, 0.0 ], [ 38.63, 39.243, 0.0 ], [ 39.359, 39.634, 0.0 ], [ 38.01, 40.085, 0.0 ], [ 36.054, 39.496, 0.0 ], [ 35.904, 39.562, 0.0 ], [ 34.938, 38.828, 0.0 ], [ 34.946, 38.17, 0.0 ], [ 35.782, 38.393, 0.0 ] ] ] } },
{ "type": "Feature", "properties": { "Name": "TURAS018", "Description": "", "zone_id": 12 }, "geometry": { "type": "Polygon", "coordinates": [ [ [ 40.582, 39.659, 0.0 ], [ 40.779, 39.617, 0.0 ], [ 41.124, 39.536, 0.0 ], [ 41.388, 39.475, 0.0 ], [ 41.864, 39.351, 0.0 ], [ 43.036, 39.256, 0.0 ], [ 42.891, 39.794, 0.0 ], [ 42.24, 39.903, 0.0 ], [ 42.076, 39.91, 0.0 ], [ 41.549, 39.982, 0.0 ], [ 40.582, 39.659, 0.0 ] ] ] } },
{ "type": "Feature", "properties": { "Name": "TURAS028", "Description": "", "zone_id": 13 }, "geometry": { "type": "Polygon", "coordinates": [ [ [ 45.987, 37.127, 0.0 ], [ 45.254, 37.871, 0.0 ], [ 44.601, 38.509, 0.0 ], [ 43.036, 39.256, 0.0 ], [ 42.475, 38.713, 0.0 ], [ 42.778, 38.612, 0.0 ], [ 43.276, 38.359, 0.0 ], [ 43.841, 38.075, 0.0 ], [ 44.473, 37.757, 0.0 ], [ 44.848, 37.59, 0.0 ], [ 45.253, 37.434, 0.0 ], [ 45.581, 37.301, 0.0 ], [ 45.987, 37.127, 0.0 ] ] ] } },
{ "type": "Feature", "properties": { "Name": "TURAS033", "Description": "", "zone_id": 14 }, "geometry": { "type": "Polygon", "coordinates": [ [ [ 34.822, 37.96, 0.0 ], [ 34.946, 38.17, 0.0 ], [ 34.938, 38.828, 0.0 ], [ 35.904, 39.562, 0.0 ], [ 34.787, 39.97, 0.0 ], [ 33.704, 39.108, 0.0 ], [ 34.248, 38.423, 0.0 ], [ 34.822, 37.96, 0.0 ] ] ] } },
{ "type": "Feature", "properties": { "Name": "TURAS034", "Description": "", "zone_id": 15 }, "geometry": { "type": "Polygon", "coordinates": [ [ [ 31.9, 40.621, 0.0 ], [ 31.248, 40.419, 0.0 ], [ 30.907, 40.362, 0.0 ], [ 30.391, 40.375, 0.0 ], [ 29.7, 40.301, 0.0 ], [ 30.303, 40.125, 0.0 ], [ 31.36, 39.796, 0.0 ], [ 31.602, 39.738, 0.0 ], [ 31.796, 39.691, 0.0 ], [ 32.726, 39.385, 0.0 ], [ 32.974, 39.623, 0.0 ], [ 33.058, 40.066, 0.0 ], [ 33.122, 40.413, 0.0 ], [ 33.374, 40.801, 0.0 ], [ 33.27, 40.803, 0.0 ], [ 33.145, 40.807, 0.0 ], [ 33.062, 40.809, 0.0 ], [ 32.835, 40.691, 0.0 ], [ 31.9, 40.621, 0.0 ] ] ] } },
{ "type": "Feature", "properties": { "Name": "TURAS037", "Description": "", "zone_id": 16 }, "geometry": { "type": "Polygon", "coordinates": [ [ [ 29.502, 35.146, 0.0 ], [ 30.018, 35.167, 0.0 ], [ 30.474, 35.025, 0.0 ], [ 32.012, 34.179, 0.0 ], [ 31.63, 36.173, 0.0 ], [ 30.525, 36.381, 0.0 ], [ 30.182, 35.798, 0.0 ], [ 29.502, 35.146, 0.0 ] ] ] } },
{ "type": "Feature", "properties": { "Name": "TURAS040", "Description": "", "zone_id": 17 }, "geometry": { "type": "Polygon", "coordinates": [ [ [ 30.27, 36.428, 0.0 ], [ 30.525, 36.381, 0.0 ], [ 31.63, 36.173, 0.0 ], [ 31.989, 36.167, 0.0 ], [ 32.535, 36.165, 0.0 ], [ 32.347, 36.623, 0.0 ], [ 31.999, 37.034, 0.0 ], [ 31.537, 37.823, 0.0 ], [ 30.582, 37.502, 0.0 ], [ 29.898, 37.365, 0.0 ], [ 30.27, 36.428, 0.0 ] ] ] } },
{ "type": "Feature", "properties": { "Name": "TURAS049", "Description": "", "zone_id": 18 }, "geometry": { "type": "Polygon", "coordinates": [ [ [ 26.617, 39.651, 0.0 ], [ 26.994, 39.759, 0.0 ], [ 27.55, 39.806, 0.0 ], [ 27.916, 39.985, 0.0 ], [ 28.744, 40.27, 0.0 ], [ 29.7, 40.301, 0.0 ], [ 30.391, 40.375, 0.0 ], [ 30.907, 40.362, 0.0 ], [ 31.248, 40.419, 0.0 ], [ 31.042, 40.469, 0.0 ], [ 30.68, 40.558, 0.0 ], [ 30.327, 40.568, 0.0 ], [ 30.15, 40.572, 0.0 ], [ 29.892, 40.572, 0.0 ], [ 29.413, 40.57, 0.0 ], [ 28.958, 40.565, 0.0 ], [ 28.725, 40.503, 0.0 ], [ 28.295, 40.481, 0.0 ], [ 27.928, 40.462, 0.0 ], [ 27.71, 40.39, 0.0 ], [ 27.453, 40.305, 0.0 ], [ 27.294, 40.253, 0.0 ], [ 27.041, 40.169, 0.0 ], [ 26.94, 40.136, 0.0 ], [ 26.836, 40.128, 0.0 ], [ 26.709, 40.119, 0.0 ], [ 26.605, 40.111, 0.0 ], [ 26.264, 39.827, 0.0 ], [ 26.175, 39.754, 0.0 ], [ 26.094, 39.694, 0.0 ], [ 26.041, 39.654, 0.0 ], [ 26.113, 39.586, 0.0 ], [ 26.262, 39.545, 0.0 ], [ 26.617, 39.651, 0.0 ] ] ] } },
{ "type": "Feature", "properties": { "Name": "TURAS050", "Description": "", "zone_id": 19 }, "geometry": { "type": "Polygon", "coordinates": [ [ [ 29.255, 39.421, 0.0 ], [ 29.549, 39.322, 0.0 ], [ 29.903, 39.235, 0.0 ], [ 30.223, 39.127, 0.0 ], [ 30.733, 38.955, 0.0 ], [ 30.827, 39.06, 0.0 ], [ 30.934, 39.177, 0.0 ], [ 31.127, 39.374, 0.0 ], [ 30.333, 39.616, 0.0 ], [ 29.524, 39.726, 0.0 ], [ 29.413, 39.598, 0.0 ], [ 29.255, 39.421, 0.0 ] ] ] } },
{ "type": "Feature", "properties": { "Name": "TURAS051", "Description": "", "zone_id": 20 }, "geometry": { "type": "Polygon", "coordinates": [ [ [ 30.733, 38.955, 0.0 ], [ 31.071, 38.801, 0.0 ], [ 31.671, 38.365, 0.0 ], [ 32.09, 38.149, 0.0 ], [ 32.566, 38.719, 0.0 ], [ 32.352, 38.89, 0.0 ], [ 31.505, 39.269, 0.0 ], [ 31.127, 39.374, 0.0 ], [ 31.031, 39.275, 0.0 ], [ 30.934, 39.177, 0.0 ], [ 30.864, 39.1, 0.0 ], [ 30.792, 39.022, 0.0 ], [ 30.733, 38.955, 0.0 ] ] ] } },
{ "type": "Feature", "properties": { "Name": "TURAS052", "Description": "", "zone_id": 21 }, "geometry": { "type": "Polygon", "coordinates": [ [ [ 28.679, 38.102, 0.0 ], [ 29.406, 37.793, 0.0 ], [ 29.34, 38.152, 0.0 ], [ 29.241, 38.208, 0.0 ], [ 29.064, 38.299, 0.0 ], [ 28.798, 38.436, 0.0 ], [ 28.501, 38.762, 0.0 ], [ 28.201, 38.799, 0.0 ], [ 27.962, 38.986, 0.0 ], [ 27.551, 39.19, 0.0 ], [ 26.975, 38.785, 0.0 ], [ 26.749, 38.07, 0.0 ], [ 26.875, 38.018, 0.0 ], [ 27.1, 38.148, 0.0 ], [ 27.311, 38.246, 0.0 ], [ 27.824, 38.308, 0.0 ], [ 28.042, 38.404, 0.0 ], [ 28.518, 38.277, 0.0 ], [ 28.679, 38.102, 0.0 ] ] ] } },
{ "type": "Feature", "properties": { "Name": "TURAS069", "Description": "", "zone_id": 22 }, "geometry": { "type": "Polygon", "coordinates": [ [ [ 27.411, 36.13, 0.0 ], [ 28.374, 36.633, 0.0 ], [ 28.445, 36.74, 0.0 ], [ 27.805, 36.601, 0.0 ], [ 26.996, 36.426, 0.0 ], [ 26.51, 36.321, 0.0 ], [ 25.239, 36.087, 0.0 ], [ 24.369, 36.092, 0.0 ], [ 23.616, 36.1, 0.0 ], [ 23.791, 35.816, 0.0 ], [ 24.566, 35.595, 0.0 ], [ 24.989, 35.511, 0.0 ], [ 25.689, 35.535, 0.0 ], [ 26.368, 35.614, 0.0 ], [ 26.688, 35.753, 0.0 ], [ 27.411, 36.13, 0.0 ] ] ] } },
{ "type": "Feature", "properties": { "Name": "TURAS070", "Description": "", "zone_id": 23 }, "geometry": { "type": "Polygon", "coordinates": [ [ [ 28.643, 36.139, 0.0 ], [ 29.393, 35.893, 0.0 ], [ 29.781, 36.027, 0.0 ], [ 30.27, 36.428, 0.0 ], [ 29.898, 37.365, 0.0 ], [ 29.525, 37.17, 0.0 ], [ 28.643, 36.139, 0.0 ] ] ] } },
{ "type": "Feature", "properties": { "Name": "TURAS071", "Description": "", "zone_id": 24 }, "geometry": { "type": "Polygon", "coordinates": [ [ [ 25.604, 39.667, 0.0 ], [ 25.696, 39.647, 0.0 ], [ 26.041, 39.654, 0.0 ], [ 26.166, 39.748, 0.0 ], [ 26.264, 39.827, 0.0 ], [ 26.26, 39.873, 0.0 ], [ 26.25, 39.982, 0.0 ], [ 26.227, 40.116, 0.0 ], [ 26.201, 40.25, 0.0 ], [ 25.628, 40.113, 0.0 ], [ 25.504, 40.084, 0.0 ], [ 25.558, 39.858, 0.0 ], [ 25.604, 39.667, 0.0 ] ] ] } },
{ "type": "Feature", "properties": { "Name": "TURAS072", "Description": "", "zone_id": 25 }, "geometry": { "type": "Polygon", "coordinates": [ [ [ 29.34, 38.152, 0.0 ], [ 29.768, 38.654, 0.0 ], [ 29.153, 38.957, 0.0 ], [ 28.351, 38.974, 0.0 ], [ 28.154, 39.023, 0.0 ], [ 28.088, 39.039, 0.0 ], [ 28.057, 39.046, 0.0 ], [ 27.962, 38.986, 0.0 ], [ 27.977, 38.975, 0.0 ], [ 27.997, 38.959, 0.0 ], [ 28.031, 38.933, 0.0 ], [ 28.049, 38.918, 0.0 ], [ 28.085, 38.89, 0.0 ], [ 28.128, 38.857, 0.0 ], [ 28.168, 38.825, 0.0 ], [ 28.201, 38.799, 0.0 ], [ 28.286, 38.789, 0.0 ], [ 28.491, 38.764, 0.0 ], [ 28.501, 38.762, 0.0 ], [ 28.546, 38.713, 0.0 ], [ 28.575, 38.681, 0.0 ], [ 28.618, 38.633, 0.0 ], [ 28.678, 38.567, 0.0 ], [ 28.726, 38.515, 0.0 ], [ 28.769, 38.467, 0.0 ], [ 28.798, 38.436, 0.0 ], [ 28.859, 38.404, 0.0 ], [ 28.895, 38.386, 0.0 ], [ 28.994, 38.335, 0.0 ], [ 29.099, 38.281, 0.0 ], [ 29.176, 38.241, 0.0 ], [ 29.25, 38.203, 0.0 ], [ 29.34, 38.152, 0.0 ] ] ] } },
{ "type": "Feature", "properties": { "Name": "TURAS073", "Description": "", "zone_id": 26 }, "geometry": { "type": "Polygon", "coordinates": [ [ [ 26.936, 39.458, 0.0 ], [ 26.926, 39.405, 0.0 ], [ 27.722, 39.521, 0.0 ], [ 27.988, 39.554, 0.0 ], [ 28.346, 39.463, 0.0 ], [ 28.577, 39.462, 0.0 ], [ 28.691, 39.463, 0.0 ], [ 28.885, 39.466, 0.0 ], [ 29.255, 39.421, 0.0 ], [ 29.323, 39.498, 0.0 ], [ 29.413, 39.598, 0.0 ], [ 29.461, 39.652, 0.0 ], [ 29.524, 39.726, 0.0 ], [ 27.916, 39.985, 0.0 ], [ 27.55, 39.806, 0.0 ], [ 26.994, 39.759, 0.0 ], [ 26.982, 39.697, 0.0 ], [ 26.969, 39.638, 0.0 ], [ 26.952, 39.544, 0.0 ], [ 26.936, 39.458, 0.0 ] ] ] } },
{ "type": "Feature", "properties": { "Name": "TURAS074", "Description": "", "zone_id": 27 }, "geometry": { "type": "Polygon", "coordinates": [ [ [ 27.421, 37.027, 0.0 ], [ 29.016, 37.177, 0.0 ], [ 29.581, 37.634, 0.0 ], [ 29.484, 37.679, 0.0 ], [ 28.213, 37.617, 0.0 ], [ 27.737, 37.682, 0.0 ], [ 26.56, 37.483, 0.0 ], [ 26.496, 37.11, 0.0 ], [ 26.882, 37.209, 0.0 ], [ 27.421, 37.027, 0.0 ] ] ] } },
{ "type": "Feature", "properties": { "Name": "TURAS075", "Description": "", "zone_id": 28 }, "geometry": { "type": "Polygon", "coordinates": [ [ [ 27.1, 38.148, 0.0 ], [ 27.38, 37.997, 0.0 ], [ 28.27, 38.022, 0.0 ], [ 28.679, 38.102, 0.0 ], [ 28.518, 38.277, 0.0 ], [ 28.042, 38.404, 0.0 ], [ 27.824, 38.308, 0.0 ], [ 27.311, 38.246, 0.0 ], [ 27.1, 38.148, 0.0 ] ] ] } },
{ "type": "Feature", "properties": { "Name": "TURAS077", "Description": "", "zone_id": 29 }, "geometry": { "type": "Polygon", "coordinates": [ [ [ 26.605, 40.111, 0.0 ], [ 26.94, 40.136, 0.0 ], [ 27.928, 40.462, 0.0 ], [ 28.725, 40.503, 0.0 ], [ 28.525, 40.557, 0.0 ], [ 28.289, 40.624, 0.0 ], [ 28.185, 40.651, 0.0 ], [ 28.001, 40.629, 0.0 ], [ 27.8, 40.606, 0.0 ], [ 27.599, 40.582, 0.0 ], [ 27.441, 40.563, 0.0 ], [ 27.312, 40.548, 0.0 ], [ 27.148, 40.528, 0.0 ], [ 27.127, 40.522, 0.0 ], [ 27.059, 40.502, 0.0 ], [ 26.993, 40.482, 0.0 ], [ 26.913, 40.459, 0.0 ], [ 26.851, 40.441, 0.0 ], [ 26.787, 40.422, 0.0 ], [ 26.704, 40.398, 0.0 ], [ 26.649, 40.382, 0.0 ], [ 26.566, 40.358, 0.0 ], [ 26.518, 40.344, 0.0 ], [ 26.445, 40.322, 0.0 ], [ 26.382, 40.304, 0.0 ], [ 26.345, 40.293, 0.0 ], [ 26.282, 40.275, 0.0 ], [ 26.201, 40.25, 0.0 ], [ 26.23, 40.102, 0.0 ], [ 26.253, 39.961, 0.0 ], [ 26.264, 39.827, 0.0 ], [ 26.605, 40.111, 0.0 ] ] ] } },
{ "type": "Feature", "properties": { "Name": "TURAS085", "Description": "", "zone_id": 30 }, "geometry": { "type": "Polygon", "coordinates": [ [ [ 38.16, 37.946, 0.0 ], [ 38.984, 37.86, 0.0 ], [ 39.431, 38.095, 0.0 ], [ 40.166, 38.274, 0.0 ], [ 41.069, 38.312, 0.0 ], [ 41.206, 38.403, 0.0 ], [ 41.384, 38.322, 0.0 ], [ 41.522, 38.408, 0.0 ], [ 40.622, 38.741, 0.0 ], [ 38.16, 37.946, 0.0 ] ] ] } },
{ "type": "Feature", "properties": { "Name": "TURAS087", "Description": "", "zone_id": 31 }, "geometry": { "type": "Polygon", "coordinates": [ [ [ 40.622, 38.741, 0.0 ], [ 41.522, 38.408, 0.0 ], [ 42.236, 38.186, 0.0 ], [ 44.277, 37.856, 0.0 ], [ 43.418, 38.287, 0.0 ], [ 42.758, 38.619, 0.0 ], [ 42.475, 38.713, 0.0 ], [ 41.398, 39.009, 0.0 ], [ 40.878, 38.97, 0.0 ], [ 40.622, 38.741, 0.0 ] ] ] } },
{ "type": "Feature", "properties": { "Name": "TURAS090", "Description": "", "zone_id": 32 }, "geometry": { "type": "Polygon", "coordinates": [ [ [ 38.63, 39.243, 0.0 ], [ 39.146, 39.252, 0.0 ], [ 40.076, 38.964, 0.0 ], [ 40.467, 39.313, 0.0 ], [ 40.226, 39.382, 0.0 ], [ 39.76, 39.515, 0.0 ], [ 39.359, 39.634, 0.0 ], [ 39.23, 39.564, 0.0 ], [ 39.082, 39.484, 0.0 ], [ 38.63, 39.243, 0.0 ] ] ] } },
{ "type": "Feature", "properties": { "Name": "TURAS091", "Description": "", "zone_id": 33 }, "geometry": { "type": "Polygon", "coordinates": [ [ [ 37.907, 38.086, 0.0 ], [ 40.076, 38.964, 0.0 ], [ 39.146, 39.252, 0.0 ], [ 38.424, 38.72, 0.0 ], [ 37.907, 38.086, 0.0 ] ] ] } },
{ "type": "Feature", "properties": { "Name": "TURAS092", "Description": "", "zone_id": 34 }, "geometry": { "type": "Polygon", "coordinates": [ [ [ 33.29, 39.446, 0.0 ], [ 33.668, 39.864, 0.0 ], [ 35.477, 40.588, 0.0 ], [ 34.539, 40.77, 0.0 ], [ 33.374, 40.801, 0.0 ], [ 33.122, 40.413, 0.0 ], [ 32.974, 39.623, 0.0 ], [ 33.29, 39.446, 0.0 ] ] ] } },
{ "type": "Feature", "properties": { "Name": "TURAS093", "Description": "", "zone_id": 35 }, "geometry": { "type": "Polygon", "coordinates": [ [ [ 29.768, 38.654, 0.0 ], [ 30.399, 38.534, 0.0 ], [ 30.417, 38.563, 0.0 ], [ 30.446, 38.607, 0.0 ], [ 30.468, 38.641, 0.0 ], [ 30.496, 38.684, 0.0 ], [ 30.497, 38.685, 0.0 ], [ 29.353, 38.951, 0.0 ], [ 28.346, 39.463, 0.0 ], [ 27.988, 39.554, 0.0 ], [ 27.794, 39.53, 0.0 ], [ 27.551, 39.19, 0.0 ], [ 27.962, 38.986, 0.0 ], [ 28.057, 39.046, 0.0 ], [ 28.351, 38.974, 0.0 ], [ 29.153, 38.957, 0.0 ], [ 29.768, 38.654, 0.0 ] ] ] } },
{ "type": "Feature", "properties": { "Name": "TURAS094", "Description": "", "zone_id": 36 }, "geometry": { "type": "Polygon", "coordinates": [ [ [ 29.353, 38.951, 0.0 ], [ 30.497, 38.685, 0.0 ], [ 30.733, 38.955, 0.0 ], [ 29.903, 39.235, 0.0 ], [ 29.549, 39.322, 0.0 ], [ 29.255, 39.421, 0.0 ], [ 28.885, 39.466, 0.0 ], [ 28.629, 39.462, 0.0 ], [ 28.346, 39.463, 0.0 ], [ 28.603, 39.332, 0.0 ], [ 28.77, 39.248, 0.0 ], [ 29.353, 38.951, 0.0 ] ] ] } },
{ "type": "Feature", "properties": { "Name": "TURAS095", "Description": "", "zone_id": 37 }, "geometry": { "type": "Polygon", "coordinates": [ [ [ 32.566, 38.719, 0.0 ], [ 33.012, 38.449, 0.0 ], [ 33.559, 38.3, 0.0 ], [ 32.726, 39.385, 0.0 ], [ 31.796, 39.691, 0.0 ], [ 31.505, 39.269, 0.0 ], [ 32.352, 38.89, 0.0 ], [ 32.566, 38.719, 0.0 ] ] ] } },
{ "type": "Feature", "properties": { "Name": "TURAS096", "Description": "", "zone_id": 38 }, "geometry": { "type": "Polygon", "coordinates": [ [ [ 30.497, 38.685, 0.0 ], [ 30.399, 38.534, 0.0 ], [ 30.535, 38.476, 0.0 ], [ 30.689, 38.411, 0.0 ], [ 30.932, 38.454, 0.0 ], [ 31.692, 37.909, 0.0 ], [ 31.717, 37.925, 0.0 ], [ 31.749, 37.946, 0.0 ], [ 31.797, 37.972, 0.0 ], [ 31.868, 38.015, 0.0 ], [ 31.925, 38.049, 0.0 ], [ 31.985, 38.085, 0.0 ], [ 32.034, 38.114, 0.0 ], [ 32.09, 38.149, 0.0 ], [ 31.956, 38.22, 0.0 ], [ 31.671, 38.365, 0.0 ], [ 31.071, 38.801, 0.0 ], [ 30.733, 38.955, 0.0 ], [ 30.497, 38.685, 0.0 ] ] ] } },
{ "type": "Feature", "properties": { "Name": "TURAS097", "Description": "", "zone_id": 39 }, "geometry": { "type": "Polygon", "coordinates": [ [ [ 29.34, 38.152, 0.0 ], [ 29.406, 37.793, 0.0 ], [ 29.484, 37.679, 0.0 ], [ 29.581, 37.634, 0.0 ], [ 30.266, 37.913, 0.0 ], [ 30.31, 38.257, 0.0 ], [ 30.399, 38.534, 0.0 ], [ 29.768, 38.654, 0.0 ], [ 29.524, 38.368, 0.0 ], [ 29.34, 38.152, 0.0 ] ] ] } },
{ "type": "Feature", "properties": { "Name": "TURAS098", "Description": "", "zone_id": 40 }, "geometry": { "type": "Polygon", "coordinates": [ [ [ 31.999, 37.034, 0.0 ], [ 32.347, 36.623, 0.0 ], [ 32.535, 36.165, 0.0 ], [ 33.64, 36.111, 0.0 ], [ 34.554, 36.269, 0.0 ], [ 34.743, 36.483, 0.0 ], [ 34.613, 36.74, 0.0 ], [ 34.479, 37.001, 0.0 ], [ 34.672, 37.69, 0.0 ], [ 33.5, 37.188, 0.0 ], [ 31.999, 37.034, 0.0 ] ] ] } },
{ "type": "Feature", "properties": { "Name": "TURAS099", "Description": "", "zone_id": 41 }, "geometry": { "type": "Polygon", "coordinates": [ [ [ 31.537, 37.823, 0.0 ], [ 31.999, 37.034, 0.0 ], [ 33.5, 37.188, 0.0 ], [ 34.672, 37.69, 0.0 ], [ 33.976, 37.936, 0.0 ], [ 33.559, 38.3, 0.0 ], [ 33.012, 38.449, 0.0 ], [ 32.566, 38.719, 0.0 ], [ 32.09, 38.149, 0.0 ], [ 31.692, 37.909, 0.0 ], [ 31.537, 37.823, 0.0 ] ] ] } },
{ "type": "Feature", "properties": { "Name": "TURAS100", "Description": "", "zone_id": 42 }, "geometry": { "type": "Polygon", "coordinates": [ [ [ 30.266, 37.913, 0.0 ], [ 30.524, 37.904, 0.0 ], [ 30.582, 37.502, 0.0 ], [ 31.537, 37.823, 0.0 ], [ 31.692, 37.909, 0.0 ], [ 30.932, 38.454, 0.0 ], [ 30.689, 38.411, 0.0 ], [ 30.399, 38.534, 0.0 ], [ 30.31, 38.257, 0.0 ], [ 30.266, 37.913, 0.0 ] ] ] } },
{ "type": "Feature", "properties": { "Name": "TURAS103", "Description": "", "zone_id": 43 }, "geometry": { "type": "Polygon", "coordinates": [ [ [ 26.498, 38.125, 0.0 ], [ 26.541, 38.118, 0.0 ], [ 26.749, 38.07, 0.0 ], [ 26.975, 38.785, 0.0 ], [ 27.551, 39.19, 0.0 ], [ 27.794, 39.53, 0.0 ], [ 27.48, 39.486, 0.0 ], [ 27.23, 39.45, 0.0 ], [ 26.926, 39.405, 0.0 ], [ 26.705, 39.024, 0.0 ], [ 26.345, 38.913, 0.0 ], [ 26.533, 38.577, 0.0 ], [ 26.523, 38.444, 0.0 ], [ 26.509, 38.263, 0.0 ], [ 26.498, 38.125, 0.0 ] ] ] } },
{ "type": "Feature", "properties": { "Name": "TURAS200", "Description": "", "zone_id": 44 }, "geometry": { "type": "Polygon", "coordinates": [ [ [ 40.076, 38.964, 0.0 ], [ 40.622, 38.741, 0.0 ], [ 40.878, 38.97, 0.0 ], [ 41.398, 39.009, 0.0 ], [ 41.543, 39.435, 0.0 ], [ 41.199, 39.519, 0.0 ], [ 41.107, 39.539, 0.0 ], [ 40.779, 39.617, 0.0 ], [ 40.467, 39.313, 0.0 ], [ 40.076, 38.964, 0.0 ] ] ] } },
{ "type": "Feature", "properties": { "Name": "TURAS202", "Description": "", "zone_id": 45 }, "geometry": { "type": "Polygon", "coordinates": [ [ [ 41.398, 39.009, 0.0 ], [ 42.486, 38.713, 0.0 ], [ 43.036, 39.256, 0.0 ], [ 41.864, 39.351, 0.0 ], [ 41.543, 39.435, 0.0 ], [ 41.398, 39.009, 0.0 ] ] ] } },
{ "type": "Feature", "properties": { "Name": "AZEAS023", "Description": "", "zone_id": 46 }, "geometry": { "type": "Polygon", "coordinates": [ [ [ 44.929, 41.627, 0.0 ], [ 45.269, 41.325, 0.0 ], [ 46.362, 40.972, 0.0 ], [ 47.169, 40.691, 0.0 ], [ 48.094, 39.929, 0.0 ], [ 47.723, 40.922, 0.0 ], [ 46.634, 41.326, 0.0 ], [ 45.974, 41.498, 0.0 ], [ 45.401, 41.727, 0.0 ], [ 45.105, 41.844, 0.0 ], [ 44.929, 41.627, 0.0 ] ] ] } },
{ "type": "Feature", "properties": { "Name": "ARMAS024", "Description": "", "zone_id": 47 }, "geometry": { "type": "Polygon", "coordinates": [ [ [ 47.872, 38.957, 0.0 ], [ 48.094, 39.929, 0.0 ], [ 47.169, 40.691, 0.0 ], [ 46.695, 40.862, 0.0 ], [ 45.269, 41.325, 0.0 ], [ 44.929, 41.627, 0.0 ], [ 44.078, 41.721, 0.0 ], [ 43.345, 41.619, 0.0 ], [ 43.449, 41.157, 0.0 ], [ 45.096, 40.801, 0.0 ], [ 46.544, 40.378, 0.0 ], [ 47.008, 39.808, 0.0 ], [ 47.872, 38.957, 0.0 ] ] ] } },
{ "type": "Feature", "properties": { "Name": "ARMAS029", "Description": "", "zone_id": 48 }, "geometry": { "type": "Polygon", "coordinates": [ [ [ 43.154, 40.805, 0.0 ], [ 43.444, 40.787, 0.0 ], [ 43.702, 40.756, 0.0 ], [ 44.224, 40.684, 0.0 ], [ 45.036, 40.472, 0.0 ], [ 45.355, 40.302, 0.0 ], [ 46.246, 40.02, 0.0 ], [ 47.008, 39.808, 0.0 ], [ 46.544, 40.378, 0.0 ], [ 45.118, 40.795, 0.0 ], [ 43.449, 41.157, 0.0 ], [ 43.154, 40.805, 0.0 ] ] ] } },
{ "type": "Feature", "properties": { "Name": "ARMAS030", "Description": "", "zone_id": 49 }, "geometry": { "type": "Polygon", "coordinates": [ [ [ 46.373, 38.562, 0.0 ], [ 46.442, 38.349, 0.0 ], [ 47.105, 37.932, 0.0 ], [ 47.444, 37.531, 0.0 ], [ 47.854, 37.022, 0.0 ], [ 48.257, 38.564, 0.0 ], [ 47.872, 38.957, 0.0 ], [ 47.008, 39.808, 0.0 ], [ 46.246, 40.02, 0.0 ], [ 45.355, 40.302, 0.0 ], [ 45.92, 39.353, 0.0 ], [ 46.373, 38.562, 0.0 ] ] ] } },
{ "type": "Feature", "properties": { "Name": "ARMAS036", "Description": "", "zone_id": 50 }, "geometry": { "type": "Polygon", "coordinates": [ [ [ 45.245, 38.781, 0.0 ], [ 45.334, 38.724, 0.0 ], [ 45.49, 38.619, 0.0 ], [ 45.727, 38.461, 0.0 ], [ 46.442, 38.349, 0.0 ], [ 46.434, 38.375, 0.0 ], [ 46.373, 38.562, 0.0 ], [ 45.355, 40.302, 0.0 ], [ 45.036, 40.472, 0.0 ], [ 44.224, 40.684, 0.0 ], [ 44.134, 40.697, 0.0 ], [ 43.997, 40.716, 0.0 ], [ 43.851, 40.736, 0.0 ], [ 43.77, 40.448, 0.0 ], [ 43.738, 40.289, 0.0 ], [ 44.591, 39.551, 0.0 ], [ 45.245, 38.781, 0.0 ] ] ] } },
{ "type": "Feature", "properties": { "Name": "ARMAS084", "Description": "", "zone_id": 51 }, "geometry": { "type": "Polygon", "coordinates": [ [ [ 43.036, 39.256, 0.0 ], [ 44.601, 38.509, 0.0 ], [ 45.334, 38.724, 0.0 ], [ 45.245, 38.781, 0.0 ], [ 44.591, 39.551, 0.0 ], [ 43.738, 40.289, 0.0 ], [ 42.891, 39.794, 0.0 ], [ 43.036, 39.256, 0.0 ] ] ] } },
{ "type": "Feature", "properties": { "Name": "ARMAS088", "Description": "", "zone_id": 52 }, "geometry": { "type": "Polygon", "coordinates": [ [ [ 42.076, 39.91, 0.0 ], [ 42.24, 39.903, 0.0 ], [ 42.891, 39.794, 0.0 ], [ 43.738, 40.289, 0.0 ], [ 43.776, 40.48, 0.0 ], [ 43.851, 40.736, 0.0 ], [ 43.444, 40.787, 0.0 ], [ 43.154, 40.805, 0.0 ], [ 42.076, 39.91, 0.0 ] ] ] } },
{ "type": "Feature", "properties": { "Name": "BGRAS032", "Description": "", "zone_id": 53 }, "geometry": { "type": "Polygon", "coordinates": [ [ [ 39.362, 40.007, 0.0 ], [ 40.865, 40.272, 0.0 ], [ 41.217, 40.867, 0.0 ], [ 41.53, 41.405, 0.0 ], [ 40.248, 41.104, 0.0 ], [ 38.542, 41.128, 0.0 ], [ 37.373, 41.433, 0.0 ], [ 36.458, 41.706, 0.0 ], [ 35.685, 41.994, 0.0 ], [ 35.111, 42.191, 0.0 ], [ 34.337, 42.343, 0.0 ], [ 33.983, 42.318, 0.0 ], [ 33.42, 42.231, 0.0 ], [ 32.927, 42.118, 0.0 ], [ 32.3, 41.87, 0.0 ], [ 31.597, 41.588, 0.0 ], [ 31.071, 41.434, 0.0 ], [ 30.862, 41.373, 0.0 ], [ 30.604, 41.421, 0.0 ], [ 29.809, 41.411, 0.0 ], [ 29.147, 41.706, 0.0 ], [ 28.67, 42.008, 0.0 ], [ 28.469, 42.269, 0.0 ], [ 27.852, 42.161, 0.0 ], [ 28.179, 41.633, 0.0 ], [ 28.587, 41.047, 0.0 ], [ 29.024, 41.042, 0.0 ], [ 29.207, 40.918, 0.0 ], [ 29.656, 40.876, 0.0 ], [ 30.141, 40.883, 0.0 ], [ 30.98, 40.891, 0.0 ], [ 31.464, 40.826, 0.0 ], [ 31.886, 40.891, 0.0 ], [ 32.554, 41.065, 0.0 ], [ 32.911, 41.157, 0.0 ], [ 33.218, 41.236, 0.0 ], [ 33.482, 41.304, 0.0 ], [ 35.318, 41.284, 0.0 ], [ 36.348, 41.011, 0.0 ], [ 37.411, 40.632, 0.0 ], [ 38.194, 40.382, 0.0 ], [ 39.362, 40.007, 0.0 ] ] ] } },
{ "type": "Feature", "properties": { "Name": "BGRAS043", "Description": "", "zone_id": 54 }, "geometry": { "type": "Polygon", "coordinates": [ [ [ 23.008, 41.543, 0.0 ], [ 23.94, 41.523, 0.0 ], [ 25.233, 41.281, 0.0 ], [ 26.008, 41.421, 0.0 ], [ 27.223, 41.532, 0.0 ], [ 28.19, 41.618, 0.0 ], [ 27.852, 42.161, 0.0 ], [ 25.96, 42.373, 0.0 ], [ 24.543, 42.377, 0.0 ], [ 23.341, 42.632, 0.0 ], [ 23.008, 41.543, 0.0 ] ] ] } },
{ "type": "Feature", "properties": { "Name": "BGRAS048", "Description": "", "zone_id": 55 }, "geometry": { "type": "Polygon", "coordinates": [ [ [ 25.389, 40.549, 0.0 ], [ 26.026, 40.621, 0.0 ], [ 26.553, 40.748, 0.0 ], [ 27.098, 40.874, 0.0 ], [ 27.579, 40.985, 0.0 ], [ 27.995, 41.025, 0.0 ], [ 28.587, 41.047, 0.0 ], [ 28.19, 41.618, 0.0 ], [ 27.613, 41.567, 0.0 ], [ 26.757, 41.489, 0.0 ], [ 26.008, 41.421, 0.0 ], [ 25.233, 41.281, 0.0 ], [ 23.94, 41.523, 0.0 ], [ 23.008, 41.543, 0.0 ], [ 22.922, 40.969, 0.0 ], [ 23.495, 40.825, 0.0 ], [ 23.934, 40.625, 0.0 ], [ 24.353, 40.434, 0.0 ], [ 24.903, 40.307, 0.0 ], [ 25.389, 40.549, 0.0 ] ] ] } },
{ "type": "Feature", "properties": { "Name": "BGRAS078", "Description": "", "zone_id": 56 }, "geometry": { "type": "Polygon", "coordinates": [ [ [ 23.341, 42.632, 0.0 ], [ 24.543, 42.377, 0.0 ], [ 25.96, 42.373, 0.0 ], [ 27.852, 42.161, 0.0 ], [ 28.469, 42.269, 0.0 ], [ 29.127, 42.401, 0.0 ], [ 28.785, 42.832, 0.0 ], [ 26.965, 43.011, 0.0 ], [ 26.441, 43.096, 0.0 ], [ 25.454, 43.127, 0.0 ], [ 23.505, 43.4, 0.0 ], [ 23.341, 42.632, 0.0 ] ] ] } },
{ "type": "Feature", "properties": { "Name": "CYPAS012", "Description": "", "zone_id": 57 }, "geometry": { "type": "Polygon", "coordinates": [ [ [ 32.234, 35.414, 0.0 ], [ 33.068, 35.133, 0.0 ], [ 33.895, 35.137, 0.0 ], [ 34.6, 35.35, 0.0 ], [ 35.191, 35.607, 0.0 ], [ 34.554, 36.269, 0.0 ], [ 33.64, 36.111, 0.0 ], [ 32.535, 36.165, 0.0 ], [ 31.975, 36.167, 0.0 ], [ 32.234, 35.414, 0.0 ] ] ] } },
{ "type": "Feature", "properties": { "Name": "CYPAS038", "Description": "", "zone_id": 58 }, "geometry": { "type": "Polygon", "coordinates": [ [ [ 32.012, 34.179, 0.0 ], [ 32.668, 34.091, 0.0 ], [ 32.524, 34.667, 0.0 ], [ 32.234, 35.414, 0.0 ], [ 31.975, 36.167, 0.0 ], [ 31.63, 36.173, 0.0 ], [ 32.012, 34.179, 0.0 ] ] ] } },
{ "type": "Feature", "properties": { "Name": "CYPAS039", "Description": "", "zone_id": 59 }, "geometry": { "type": "Polygon", "coordinates": [ [ [ 33.7, 33.908, 0.0 ], [ 35.145, 34.2, 0.0 ], [ 34.6, 35.35, 0.0 ], [ 33.895, 35.137, 0.0 ], [ 33.068, 35.133, 0.0 ], [ 32.234, 35.414, 0.0 ], [ 32.524, 34.667, 0.0 ], [ 32.668, 34.091, 0.0 ], [ 33.7, 33.908, 0.0 ] ] ] } },
{ "type": "Feature", "properties": { "Name": "GEOAS019", "Description": "", "zone_id": 60 }, "geometry": { "type": "Polygon", "coordinates": [ [ [ 28.469, 42.269, 0.0 ], [ 28.67, 42.008, 0.0 ], [ 29.147, 41.706, 0.0 ], [ 29.809, 41.411, 0.0 ], [ 30.604, 41.421, 0.0 ], [ 30.862, 41.373, 0.0 ], [ 31.597, 41.588, 0.0 ], [ 32.535, 41.965, 0.0 ], [ 32.927, 42.118, 0.0 ], [ 33.4, 42.227, 0.0 ], [ 33.983, 42.318, 0.0 ], [ 34.173, 42.332, 0.0 ], [ 34.337, 42.343, 0.0 ], [ 35.111, 42.191, 0.0 ], [ 35.605, 42.021, 0.0 ], [ 35.914, 41.909, 0.0 ], [ 36.458, 41.706, 0.0 ], [ 37.323, 41.448, 0.0 ], [ 38.542, 41.128, 0.0 ], [ 40.248, 41.104, 0.0 ], [ 41.53, 41.405, 0.0 ], [ 41.699, 41.823, 0.0 ], [ 41.762, 41.959, 0.0 ], [ 41.906, 42.14, 0.0 ], [ 39.103, 42.125, 0.0 ], [ 37.747, 42.178, 0.0 ], [ 37.201, 42.566, 0.0 ], [ 36.359, 42.78, 0.0 ], [ 36.065, 42.809, 0.0 ], [ 34.751, 42.853, 0.0 ], [ 33.961, 42.854, 0.0 ], [ 32.632, 42.644, 0.0 ], [ 31.096, 41.904, 0.0 ], [ 30.31, 42.021, 0.0 ], [ 29.644, 42.163, 0.0 ], [ 29.127, 42.401, 0.0 ], [ 28.469, 42.269, 0.0 ] ] ] } },
{ "type": "Feature", "properties": { "Name": "GEOAS022", "Description": "", "zone_id": 61 }, "geometry": { "type": "Polygon", "coordinates": [ [ [ 39.362, 40.007, 0.0 ], [ 39.84, 39.794, 0.0 ], [ 40.582, 39.659, 0.0 ], [ 41.549, 39.982, 0.0 ], [ 42.292, 41.003, 0.0 ], [ 42.423, 41.209, 0.0 ], [ 42.535, 41.382, 0.0 ], [ 42.641, 41.547, 0.0 ], [ 42.249, 41.499, 0.0 ], [ 41.53, 41.405, 0.0 ], [ 41.259, 40.937, 0.0 ], [ 40.865, 40.272, 0.0 ], [ 39.362, 40.007, 0.0 ] ] ] } },
{ "type": "Feature", "properties": { "Name": "GEOAS025", "Description": "", "zone_id": 62 }, "geometry": { "type": "Polygon", "coordinates": [ [ [ 41.906, 42.14, 0.0 ], [ 41.762, 41.959, 0.0 ], [ 41.688, 41.794, 0.0 ], [ 41.53, 41.405, 0.0 ], [ 42.526, 41.534, 0.0 ], [ 43.322, 41.616, 0.0 ], [ 44.078, 41.721, 0.0 ], [ 44.929, 41.627, 0.0 ], [ 45.105, 41.844, 0.0 ], [ 44.266, 42.063, 0.0 ], [ 43.182, 42.186, 0.0 ], [ 41.906, 42.14, 0.0 ] ] ] } },
{ "type": "Feature", "properties": { "Name": "GEOAS026", "Description": "", "zone_id": 63 }, "geometry": { "type": "Polygon", "coordinates": [ [ [ 39.103, 42.125, 0.0 ], [ 39.347, 42.129, 0.0 ], [ 39.531, 42.132, 0.0 ], [ 39.639, 42.133, 0.0 ], [ 40.109, 42.138, 0.0 ], [ 40.613, 42.141, 0.0 ], [ 41.068, 42.142, 0.0 ], [ 41.403, 42.142, 0.0 ], [ 41.906, 42.14, 0.0 ], [ 43.066, 42.516, 0.0 ], [ 42.329, 42.567, 0.0 ], [ 41.677, 42.802, 0.0 ], [ 39.41, 43.022, 0.0 ], [ 39.103, 42.125, 0.0 ] ] ] } },
{ "type": "Feature", "properties": { "Name": "GEOAS089", "Description": "", "zone_id": 64 }, "geometry": { "type": "Polygon", "coordinates": [ [ [ 41.549, 39.982, 0.0 ], [ 42.076, 39.91, 0.0 ], [ 42.621, 40.362, 0.0 ], [ 42.86, 40.56, 0.0 ], [ 43.154, 40.805, 0.0 ], [ 43.449, 41.157, 0.0 ], [ 43.345, 41.619, 0.0 ], [ 42.872, 41.57, 0.0 ], [ 42.641, 41.547, 0.0 ], [ 42.286, 40.994, 0.0 ], [ 41.549, 39.982, 0.0 ] ] ] } },
{ "type": "Feature", "properties": { "Name": "GEOAS106", "Description": "", "zone_id": 65 }, "geometry": { "type": "Polygon", "coordinates": [ [ [ 41.906, 42.14, 0.0 ], [ 43.208, 42.185, 0.0 ], [ 44.256, 42.066, 0.0 ], [ 44.743, 41.94, 0.0 ], [ 45.105, 41.844, 0.0 ], [ 45.522, 41.679, 0.0 ], [ 45.974, 41.498, 0.0 ], [ 45.643, 41.832, 0.0 ], [ 45.426, 42.049, 0.0 ], [ 45.164, 42.2, 0.0 ], [ 44.899, 42.335, 0.0 ], [ 44.663, 42.434, 0.0 ], [ 44.382, 42.526, 0.0 ], [ 44.219, 42.581, 0.0 ], [ 43.529, 42.637, 0.0 ], [ 43.066, 42.516, 0.0 ], [ 41.906, 42.14, 0.0 ] ] ] } },
{ "type": "Feature", "properties": { "Name": "GRCAS046", "Description": "", "zone_id": 66 }, "geometry": { "type": "Polygon", "coordinates": [ [ [ 23.258, 37.878, 0.0 ], [ 23.348, 37.877, 0.0 ], [ 24.022, 37.866, 0.0 ], [ 24.651, 37.857, 0.0 ], [ 25.08, 37.852, 0.0 ], [ 25.218, 37.899, 0.0 ], [ 25.138, 37.98, 0.0 ], [ 24.867, 38.138, 0.0 ], [ 24.348, 38.436, 0.0 ], [ 23.375, 38.852, 0.0 ], [ 22.713, 38.88, 0.0 ], [ 22.718, 38.764, 0.0 ], [ 23.258, 37.878, 0.0 ] ] ] } },
{ "type": "Feature", "properties": { "Name": "GRCAS047", "Description": "", "zone_id": 67 }, "geometry": { "type": "Polygon", "coordinates": [ [ [ 22.805, 40.014, 0.0 ], [ 23.653, 39.909, 0.0 ], [ 24.083, 39.853, 0.0 ], [ 24.422, 40.043, 0.0 ], [ 24.903, 40.307, 0.0 ], [ 24.644, 40.367, 0.0 ], [ 24.353, 40.434, 0.0 ], [ 23.495, 40.825, 0.0 ], [ 22.922, 40.969, 0.0 ], [ 22.697, 40.771, 0.0 ], [ 22.805, 40.014, 0.0 ] ] ] } },
{ "type": "Feature", "properties": { "Name": "GRCAS053", "Description": "", "zone_id": 68 }, "geometry": { "type": "Polygon", "coordinates": [ [ [ 26.56, 37.483, 0.0 ], [ 27.737, 37.682, 0.0 ], [ 28.213, 37.617, 0.0 ], [ 28.982, 37.654, 0.0 ], [ 29.484, 37.679, 0.0 ], [ 29.406, 37.793, 0.0 ], [ 28.679, 38.102, 0.0 ], [ 28.27, 38.022, 0.0 ], [ 27.38, 37.997, 0.0 ], [ 27.1, 38.148, 0.0 ], [ 26.875, 38.018, 0.0 ], [ 26.749, 38.07, 0.0 ], [ 26.703, 37.992, 0.0 ], [ 26.625, 37.887, 0.0 ], [ 26.56, 37.483, 0.0 ] ] ] } },
{ "type": "Feature", "properties": { "Name": "GRCAS054", "Description": "", "zone_id": 69 }, "geometry": { "type": "Polygon", "coordinates": [ [ [ 27.858, 35.902, 0.0 ], [ 27.884, 35.911, 0.0 ], [ 27.991, 35.943, 0.0 ], [ 28.643, 36.139, 0.0 ], [ 29.351, 36.966, 0.0 ], [ 29.45, 37.083, 0.0 ], [ 29.525, 37.17, 0.0 ], [ 29.724, 37.274, 0.0 ], [ 29.898, 37.365, 0.0 ], [ 30.582, 37.502, 0.0 ], [ 30.573, 37.571, 0.0 ], [ 30.551, 37.718, 0.0 ], [ 30.53, 37.861, 0.0 ], [ 30.524, 37.904, 0.0 ], [ 30.437, 37.907, 0.0 ], [ 30.321, 37.911, 0.0 ], [ 30.266, 37.913, 0.0 ], [ 29.581, 37.634, 0.0 ], [ 29.016, 37.177, 0.0 ], [ 28.445, 36.74, 0.0 ], [ 28.374, 36.633, 0.0 ], [ 28.213, 36.406, 0.0 ], [ 27.858, 35.902, 0.0 ] ] ] } },
{ "type": "Feature", "properties": { "Name": "GRCAS058", "Description": "", "zone_id": 70 }, "geometry": { "type": "Polygon", "coordinates": [ [ [ 23.616, 36.1, 0.0 ], [ 24.457, 36.091, 0.0 ], [ 25.239, 36.087, 0.0 ], [ 26.51, 36.321, 0.0 ], [ 26.618, 36.666, 0.0 ], [ 27.421, 37.027, 0.0 ], [ 26.882, 37.209, 0.0 ], [ 26.496, 37.11, 0.0 ], [ 25.944, 37.013, 0.0 ], [ 25.274, 36.645, 0.0 ], [ 23.613, 36.525, 0.0 ], [ 23.616, 36.1, 0.0 ] ] ] } },
{ "type": "Feature", "properties": { "Name": "GRCAS057", "Description": "", "zone_id": 71 }, "geometry": { "type": "Polygon", "coordinates": [ [ [ 25.138, 37.98, 0.0 ], [ 25.218, 37.899, 0.0 ], [ 26.148, 38.171, 0.0 ], [ 26.498, 38.125, 0.0 ], [ 26.533, 38.577, 0.0 ], [ 26.345, 38.913, 0.0 ], [ 25.976, 38.922, 0.0 ], [ 25.439, 38.471, 0.0 ], [ 25.138, 37.98, 0.0 ] ] ] } },
{ "type": "Feature", "properties": { "Name": "GRCAS059", "Description": "", "zone_id": 72 }, "geometry": { "type": "Polygon", "coordinates": [ [ [ 23.613, 36.525, 0.0 ], [ 25.274, 36.645, 0.0 ], [ 25.944, 37.013, 0.0 ], [ 26.496, 37.11, 0.0 ], [ 26.56, 37.483, 0.0 ], [ 25.277, 37.24, 0.0 ], [ 24.951, 37.18, 0.0 ], [ 24.599, 37.187, 0.0 ], [ 23.497, 37.167, 0.0 ], [ 23.613, 36.525, 0.0 ] ] ] } },
{ "type": "Feature", "properties": { "Name": "GRCAS060", "Description": "", "zone_id": 73 }, "geometry": { "type": "Polygon", "coordinates": [ [ [ 23.497, 37.167, 0.0 ], [ 24.012, 37.176, 0.0 ], [ 24.642, 37.188, 0.0 ], [ 24.951, 37.18, 0.0 ], [ 25.277, 37.24, 0.0 ], [ 25.08, 37.852, 0.0 ], [ 23.258, 37.878, 0.0 ], [ 23.414, 37.595, 0.0 ], [ 23.497, 37.167, 0.0 ] ] ] } },
{ "type": "Feature", "properties": { "Name": "GRCAS062", "Description": "", "zone_id": 74 }, "geometry": { "type": "Polygon", "coordinates": [ [ [ 25.277, 37.24, 0.0 ], [ 26.56, 37.483, 0.0 ], [ 26.625, 37.887, 0.0 ], [ 26.703, 37.992, 0.0 ], [ 26.749, 38.07, 0.0 ], [ 26.541, 38.118, 0.0 ], [ 26.148, 38.171, 0.0 ], [ 25.218, 37.899, 0.0 ], [ 25.08, 37.852, 0.0 ], [ 25.277, 37.24, 0.0 ] ] ] } },
{ "type": "Feature", "properties": { "Name": "GRCAS063", "Description": "", "zone_id": 75 }, "geometry": { "type": "Polygon", "coordinates": [ [ [ 24.867, 38.138, 0.0 ], [ 25.138, 37.98, 0.0 ], [ 25.439, 38.471, 0.0 ], [ 25.976, 38.922, 0.0 ], [ 25.754, 39.046, 0.0 ], [ 25.511, 39.182, 0.0 ], [ 25.132, 38.871, 0.0 ], [ 25.105, 38.798, 0.0 ], [ 24.867, 38.138, 0.0 ] ] ] } },
{ "type": "Feature", "properties": { "Name": "GRCAS064", "Description": "", "zone_id": 76 }, "geometry": { "type": "Polygon", "coordinates": [ [ [ 25.976, 38.922, 0.0 ], [ 26.345, 38.913, 0.0 ], [ 26.705, 39.024, 0.0 ], [ 26.926, 39.405, 0.0 ], [ 26.935, 39.448, 0.0 ], [ 26.944, 39.499, 0.0 ], [ 26.952, 39.544, 0.0 ], [ 26.969, 39.638, 0.0 ], [ 26.982, 39.697, 0.0 ], [ 26.994, 39.759, 0.0 ], [ 26.812, 39.707, 0.0 ], [ 26.617, 39.651, 0.0 ], [ 26.441, 39.598, 0.0 ], [ 26.262, 39.545, 0.0 ], [ 26.246, 39.549, 0.0 ], [ 26.203, 39.561, 0.0 ], [ 26.152, 39.575, 0.0 ], [ 26.113, 39.586, 0.0 ], [ 26.041, 39.654, 0.0 ], [ 25.696, 39.647, 0.0 ], [ 25.511, 39.182, 0.0 ], [ 25.791, 39.025, 0.0 ], [ 25.976, 38.922, 0.0 ] ] ] } },
{ "type": "Feature", "properties": { "Name": "GRCAS066", "Description": "", "zone_id": 77 }, "geometry": { "type": "Polygon", "coordinates": [ [ [ 23.375, 38.852, 0.0 ], [ 23.992, 38.592, 0.0 ], [ 24.348, 38.436, 0.0 ], [ 24.915, 39.1, 0.0 ], [ 25.604, 39.667, 0.0 ], [ 25.504, 40.084, 0.0 ], [ 24.94, 39.903, 0.0 ], [ 23.375, 38.852, 0.0 ] ] ] } },
{ "type": "Feature", "properties": { "Name": "GRCAS067", "Description": "", "zone_id": 78 }, "geometry": { "type": "Polygon", "coordinates": [ [ [ 23.891, 35.349, 0.0 ], [ 24.804, 35.111, 0.0 ], [ 25.436, 35.03, 0.0 ], [ 26.377, 35.092, 0.0 ], [ 26.688, 35.753, 0.0 ], [ 26.368, 35.614, 0.0 ], [ 25.689, 35.535, 0.0 ], [ 24.989, 35.511, 0.0 ], [ 24.566, 35.595, 0.0 ], [ 23.791, 35.816, 0.0 ], [ 23.891, 35.349, 0.0 ] ] ] } },
{ "type": "Feature", "properties": { "Name": "GRCAS068", "Description": "", "zone_id": 79 }, "geometry": { "type": "Polygon", "coordinates": [ [ [ 24.667, 34.163, 0.0 ], [ 25.382, 33.309, 0.0 ], [ 26.897, 34.084, 0.0 ], [ 27.824, 34.665, 0.0 ], [ 28.61, 35.119, 0.0 ], [ 29.502, 35.146, 0.0 ], [ 30.182, 35.798, 0.0 ], [ 29.55, 35.648, 0.0 ], [ 28.307, 35.575, 0.0 ], [ 27.541, 35.097, 0.0 ], [ 26.772, 34.911, 0.0 ], [ 26.395, 34.659, 0.0 ], [ 24.667, 34.163, 0.0 ] ] ] } },
{ "type": "Feature", "properties": { "Name": "GRCAS076", "Description": "", "zone_id": 80 }, "geometry": { "type": "Polygon", "coordinates": [ [ [ 25.953, 32.748, 0.0 ], [ 32.012, 34.179, 0.0 ], [ 30.474, 35.025, 0.0 ], [ 30.018, 35.167, 0.0 ], [ 29.502, 35.146, 0.0 ], [ 28.61, 35.119, 0.0 ], [ 27.861, 34.686, 0.0 ], [ 26.897, 34.084, 0.0 ], [ 25.382, 33.309, 0.0 ], [ 25.953, 32.748, 0.0 ] ] ] } },
{ "type": "Feature", "properties": { "Name": "GRCAS079", "Description": "", "zone_id": 81 }, "geometry": { "type": "Polygon", "coordinates": [ [ [ 24.667, 34.163, 0.0 ], [ 26.395, 34.659, 0.0 ], [ 26.772, 34.911, 0.0 ], [ 27.541, 35.097, 0.0 ], [ 28.307, 35.575, 0.0 ], [ 29.55, 35.648, 0.0 ], [ 30.182, 35.798, 0.0 ], [ 30.525, 36.381, 0.0 ], [ 30.27, 36.428, 0.0 ], [ 29.781, 36.027, 0.0 ], [ 29.393, 35.893, 0.0 ], [ 28.643, 36.139, 0.0 ], [ 27.884, 35.911, 0.0 ], [ 27.583, 35.807, 0.0 ], [ 26.743, 35.225, 0.0 ], [ 26.377, 35.092, 0.0 ], [ 25.436, 35.03, 0.0 ], [ 24.804, 35.111, 0.0 ], [ 23.891, 35.349, 0.0 ], [ 23.879, 34.609, 0.0 ], [ 24.667, 34.163, 0.0 ] ] ] } },
{ "type": "Feature", "properties": { "Name": "GRCAS080", "Description": "", "zone_id": 82 }, "geometry": { "type": "Polygon", "coordinates": [ [ [ 24.94, 39.903, 0.0 ], [ 25.504, 40.084, 0.0 ], [ 26.201, 40.25, 0.0 ], [ 26.026, 40.621, 0.0 ], [ 25.944, 40.612, 0.0 ], [ 25.909, 40.608, 0.0 ], [ 25.863, 40.603, 0.0 ], [ 25.767, 40.592, 0.0 ], [ 25.654, 40.579, 0.0 ], [ 25.389, 40.549, 0.0 ], [ 24.903, 40.307, 0.0 ], [ 24.94, 39.903, 0.0 ] ] ] } },
{ "type": "Feature", "properties": { "Name": "GRCAS101", "Description": "", "zone_id": 83 }, "geometry": { "type": "Polygon", "coordinates": [ [ [ 26.377, 35.092, 0.0 ], [ 26.743, 35.225, 0.0 ], [ 27.583, 35.807, 0.0 ], [ 27.858, 35.902, 0.0 ], [ 28.374, 36.633, 0.0 ], [ 26.688, 35.753, 0.0 ], [ 26.377, 35.092, 0.0 ] ] ] } },
{ "type": "Feature", "properties": { "Name": "GRCAS102", "Description": "", "zone_id": 84 }, "geometry": { "type": "Polygon", "coordinates": [ [ [ 26.51, 36.321, 0.0 ], [ 28.445, 36.74, 0.0 ], [ 29.016, 37.177, 0.0 ], [ 27.421, 37.027, 0.0 ], [ 26.618, 36.666, 0.0 ], [ 26.51, 36.321, 0.0 ] ] ] } },
{ "type": "Feature", "properties": { "Name": "GRCAS058", "Description": "", "zone_id": 85 }, "geometry": { "type": "Polygon", "coordinates": [ [ [ 24.867, 38.138, 0.0 ], [ 25.132, 38.871, 0.0 ], [ 25.511, 39.182, 0.0 ], [ 25.696, 39.647, 0.0 ], [ 25.604, 39.667, 0.0 ], [ 25.46, 39.55, 0.0 ], [ 24.915, 39.1, 0.0 ], [ 24.348, 38.436, 0.0 ], [ 24.867, 38.138, 0.0 ] ] ] } },
{ "type": "Feature", "properties": { "Name": "IRNAS035", "Description": "", "zone_id": 86 }, "geometry": { "type": "Polygon", "coordinates": [ [ [ 45.098, 38.023, 0.0 ], [ 45.607, 37.515, 0.0 ], [ 45.987, 37.127, 0.0 ], [ 46.963, 37.302, 0.0 ], [ 47.492, 37.472, 0.0 ], [ 47.105, 37.932, 0.0 ], [ 46.442, 38.349, 0.0 ], [ 45.727, 38.461, 0.0 ], [ 45.334, 38.724, 0.0 ], [ 44.601, 38.509, 0.0 ], [ 45.098, 38.023, 0.0 ] ] ] } },
{ "type": "Feature", "properties": { "Name": "IRNAS082", "Description": "", "zone_id": 87 }, "geometry": { "type": "Polygon", "coordinates": [ [ [ 45.607, 36.848, 0.0 ], [ 45.581, 37.301, 0.0 ], [ 45.215, 37.449, 0.0 ], [ 44.848, 37.59, 0.0 ], [ 44.62, 37.692, 0.0 ], [ 44.473, 37.757, 0.0 ], [ 44.277, 37.856, 0.0 ], [ 42.236, 38.186, 0.0 ], [ 41.522, 38.408, 0.0 ], [ 41.384, 38.322, 0.0 ], [ 41.37, 38.328, 0.0 ], [ 41.293, 38.36, 0.0 ], [ 41.206, 38.403, 0.0 ], [ 41.069, 38.312, 0.0 ], [ 41.232, 38.199, 0.0 ], [ 41.925, 37.715, 0.0 ], [ 42.277, 37.562, 0.0 ], [ 42.624, 37.488, 0.0 ], [ 44.073, 37.173, 0.0 ], [ 45.185, 36.936, 0.0 ], [ 45.607, 36.848, 0.0 ] ] ] } },
{ "type": "Feature", "properties": { "Name": "IRNAS083", "Description": "", "zone_id": 88 }, "geometry": { "type": "Polygon", "coordinates": [ [ [ 42.175, 36.367, 0.0 ], [ 44.579, 34.472, 0.0 ], [ 46.09, 32.057, 0.0 ], [ 47.868, 31.999, 0.0 ], [ 48.361, 33.017, 0.0 ], [ 46.133, 34.627, 0.0 ], [ 45.767, 34.988, 0.0 ], [ 45.605, 35.337, 0.0 ], [ 45.193, 35.729, 0.0 ], [ 44.365, 36.384, 0.0 ], [ 43.968, 36.58, 0.0 ], [ 43.233, 36.794, 0.0 ], [ 42.675, 37.25, 0.0 ], [ 42.413, 37.335, 0.0 ], [ 41.949, 37.397, 0.0 ], [ 42.175, 36.367, 0.0 ] ] ] } },
{ "type": "Feature", "properties": { "Name": "IRNAS105", "Description": "", "zone_id": 89 }, "geometry": { "type": "Polygon", "coordinates": [ [ [ 45.606, 35.839, 0.0 ], [ 45.605, 35.337, 0.0 ], [ 45.767, 34.988, 0.0 ], [ 46.133, 34.627, 0.0 ], [ 46.773, 34.175, 0.0 ], [ 47.9, 33.358, 0.0 ], [ 48.352, 33.87, 0.0 ], [ 47.123, 35.835, 0.0 ], [ 47.238, 36.439, 0.0 ], [ 46.453, 36.888, 0.0 ], [ 45.987, 37.127, 0.0 ], [ 45.581, 37.301, 0.0 ], [ 45.607, 36.848, 0.0 ], [ 45.606, 35.839, 0.0 ] ] ] } },
{ "type": "Feature", "properties": { "Name": "IRQAS210", "Description": "", "zone_id": 90 }, "geometry": { "type": "Polygon", "coordinates": [ [ [ 45.607, 36.848, 0.0 ], [ 44.896, 36.999, 0.0 ], [ 44.114, 37.164, 0.0 ], [ 43.593, 37.279, 0.0 ], [ 42.969, 37.415, 0.0 ], [ 42.277, 37.562, 0.0 ], [ 41.925, 37.715, 0.0 ], [ 41.915, 37.723, 0.0 ], [ 41.949, 37.397, 0.0 ], [ 42.413, 37.335, 0.0 ], [ 42.675, 37.25, 0.0 ], [ 43.233, 36.794, 0.0 ], [ 43.968, 36.58, 0.0 ], [ 44.365, 36.384, 0.0 ], [ 44.724, 36.102, 0.0 ], [ 45.011, 35.875, 0.0 ], [ 45.193, 35.729, 0.0 ], [ 45.605, 35.337, 0.0 ], [ 45.607, 36.848, 0.0 ] ] ] } },
{ "type": "Feature", "properties": { "Name": "RUSAS020", "Description": "", "zone_id": 91 }, "geometry": { "type": "Polygon", "coordinates": [ [ [ 43.089, 42.909, 0.0 ], [ 44.559, 43.019, 0.0 ], [ 41.743, 43.9, 0.0 ], [ 40.418, 43.699, 0.0 ], [ 41.436, 43.391, 0.0 ], [ 42.274, 43.147, 0.0 ], [ 42.709, 43.018, 0.0 ], [ 43.089, 42.909, 0.0 ] ] ] } },
{ "type": "Feature", "properties": { "Name": "RUSAS021", "Description": "", "zone_id": 92 }, "geometry": { "type": "Polygon", "coordinates": [ [ [ 39.41, 43.022, 0.0 ], [ 41.677, 42.802, 0.0 ], [ 42.329, 42.567, 0.0 ], [ 43.066, 42.516, 0.0 ], [ 43.529, 42.637, 0.0 ], [ 44.219, 42.581, 0.0 ], [ 43.089, 42.909, 0.0 ], [ 42.603, 43.05, 0.0 ], [ 41.535, 43.362, 0.0 ], [ 40.418, 43.699, 0.0 ], [ 39.41, 43.022, 0.0 ] ] ] } },
{ "type": "Feature", "properties": { "Name": "RUSAS031", "Description": "", "zone_id": 93 }, "geometry": { "type": "Polygon", "coordinates": [ [ [ 43.089, 42.909, 0.0 ], [ 44.219, 42.581, 0.0 ], [ 44.612, 42.451, 0.0 ], [ 44.966, 42.301, 0.0 ], [ 45.191, 42.184, 0.0 ], [ 45.426, 42.049, 0.0 ], [ 45.652, 41.985, 0.0 ], [ 46.14, 41.798, 0.0 ], [ 46.438, 41.683, 0.0 ], [ 46.791, 41.52, 0.0 ], [ 47.032, 41.408, 0.0 ], [ 47.578, 41.253, 0.0 ], [ 47.256, 41.822, 0.0 ], [ 45.88, 42.473, 0.0 ], [ 45.032, 42.842, 0.0 ], [ 44.559, 43.019, 0.0 ], [ 44.353, 43.007, 0.0 ], [ 43.089, 42.909, 0.0 ] ] ] } },
{ "type": "Feature", "properties": { "Name": "RUSAS104", "Description": "", "zone_id": 94 }, "geometry": { "type": "Polygon", "coordinates": [ [ [ 45.974, 41.498, 0.0 ], [ 46.634, 41.326, 0.0 ], [ 47.723, 40.922, 0.0 ], [ 47.578, 41.253, 0.0 ], [ 47.032, 41.408, 0.0 ], [ 46.438, 41.683, 0.0 ], [ 45.652, 41.985, 0.0 ], [ 45.426, 42.049, 0.0 ], [ 45.974, 41.498, 0.0 ] ] ] } },
{ "type": "Feature", "properties": { "Name": "ROUAS042", "Description": "", "zone_id": 95 }, "geometry": { "type": "Polygon", "coordinates": [ [ [ 23.505, 43.4, 0.0 ], [ 25.422, 43.131, 0.0 ], [ 26.441, 43.096, 0.0 ], [ 26.989, 43.006, 0.0 ], [ 28.785, 42.832, 0.0 ], [ 28.984, 43.126, 0.0 ], [ 27.5, 43.249, 0.0 ], [ 26.331, 43.745, 0.0 ], [ 25.931, 44.176, 0.0 ], [ 23.75, 43.812, 0.0 ], [ 23.505, 43.4, 0.0 ] ] ] } },
{ "type": "Feature", "properties": { "Name": "ROUAS041", "Description": "", "zone_id": 96 }, "geometry": { "type": "Polygon", "coordinates": [ [ [ 27.5, 43.249, 0.0 ], [ 28.984, 43.126, 0.0 ], [ 29.175, 43.375, 0.0 ], [ 28.001, 44.04, 0.0 ], [ 26.588, 44.567, 0.0 ], [ 25.931, 44.176, 0.0 ], [ 26.331, 43.745, 0.0 ], [ 27.5, 43.249, 0.0 ] ] ] } },
{ "type": "Feature", "properties": { "Name": "SYRAS001", "Description": "", "zone_id": 97 }, "geometry": { "type": "Polygon", "coordinates": [ [ [ 36.139, 33.242, 0.0 ], [ 39.201, 34.768, 0.0 ], [ 40.435, 35.647, 0.0 ], [ 39.917, 36.311, 0.0 ], [ 38.456, 35.384, 0.0 ], [ 36.6, 34.646, 0.0 ], [ 36.499, 34.187, 0.0 ], [ 36.06, 33.55, 0.0 ], [ 36.139, 33.242, 0.0 ] ] ] } },
{ "type": "Feature", "properties": { "Name": "SYRAS002", "Description": "", "zone_id": 98 }, "geometry": { "type": "Polygon", "coordinates": [ [ [ 36.6, 34.646, 0.0 ], [ 38.456, 35.384, 0.0 ], [ 37.315, 37.397, 0.0 ], [ 36.873, 35.873, 0.0 ], [ 36.6, 34.646, 0.0 ] ] ] } },
{ "type": "Feature", "properties": { "Name": "SYRAS003", "Description": "", "zone_id": 99 }, "geometry": { "type": "Polygon", "coordinates": [ [ [ 34.978, 33.27, 0.0 ], [ 35.299, 33.266, 0.0 ], [ 35.322, 33.61, 0.0 ], [ 35.963, 34.702, 0.0 ], [ 36.091, 35.228, 0.0 ], [ 35.145, 34.2, 0.0 ], [ 34.988, 33.53, 0.0 ], [ 34.978, 33.27, 0.0 ] ] ] } },
{ "type": "Feature", "properties": { "Name": "SYRAS011", "Description": "", "zone_id": 100 }, "geometry": { "type": "Polygon", "coordinates": [ [ [ 35.145, 34.2, 0.0 ], [ 36.091, 35.228, 0.0 ], [ 35.949, 35.96, 0.0 ], [ 35.81, 36.119, 0.0 ], [ 35.191, 35.607, 0.0 ], [ 34.6, 35.35, 0.0 ], [ 35.145, 34.2, 0.0 ] ] ] } },
{ "type": "Feature", "properties": { "Name": "SYRAS017", "Description": "", "zone_id": 101 }, "geometry": { "type": "Polygon", "coordinates": [ [ [ 40.435, 35.647, 0.0 ], [ 42.175, 36.367, 0.0 ], [ 41.949, 37.397, 0.0 ], [ 39.917, 36.311, 0.0 ], [ 40.435, 35.647, 0.0 ] ] ] } },
{ "type": "Feature", "properties": { "Name": "TURAS086", "Description": "", "zone_id": 103 }, "geometry": { "type": "Polygon", "coordinates": [ [ [ 38.456, 35.384, 0.0 ], [ 39.917, 36.311, 0.0 ], [ 41.949, 37.397, 0.0 ], [ 41.915, 37.723, 0.0 ], [ 41.069, 38.312, 0.0 ], [ 40.166, 38.274, 0.0 ], [ 39.431, 38.095, 0.0 ], [ 38.984, 37.86, 0.0 ], [ 38.14, 37.946, 0.0 ], [ 37.315, 37.397, 0.0 ], [ 38.456, 35.384, 0.0 ] ] ] } },
{ "type": "Feature", "properties": { "Name": "SYRAS203", "Description": "", "zone_id": 104 }, "geometry": { "type": "Polygon", "coordinates": [ [ [ 36.086, 33.144, 0.0 ], [ 36.139, 33.242, 0.0 ], [ 36.06, 33.55, 0.0 ], [ 36.499, 34.187, 0.0 ], [ 36.873, 35.873, 0.0 ], [ 36.372, 35.577, 0.0 ], [ 36.335, 35.224, 0.0 ], [ 36.091, 35.228, 0.0 ], [ 35.963, 34.702, 0.0 ], [ 35.322, 33.61, 0.0 ], [ 35.299, 33.266, 0.0 ], [ 36.086, 33.144, 0.0 ] ] ] } },
{ "type": "Feature", "properties": { "Name": "GRCAS056", "Description": "", "zone_id": 105 }, "geometry": { "type": "Polygon", "coordinates": [ [ [ 22.713, 38.88, 0.0 ], [ 23.375, 38.852, 0.0 ], [ 24.94, 39.903, 0.0 ], [ 24.903, 40.307, 0.0 ], [ 24.083, 39.853, 0.0 ], [ 22.805, 40.014, 0.0 ], [ 22.713, 39.403, 0.0 ], [ 22.713, 38.88, 0.0 ] ] ] } },
{ "type": "Feature", "properties": { "Name": "merged_zone", "Description": " ", "zone_id": 999 }, "geometry": { "type": "Polygon", "coordinates": [ [ [ 36.819, 37.63, 0.0 ], [ 37.907, 38.086, 0.0 ], [ 40.076, 38.964, 0.0 ], [ 40.622, 38.741, 0.0 ], [ 38.14, 37.946, 0.0 ], [ 37.315, 37.397, 0.0 ], [ 36.873, 35.873, 0.0 ], [ 36.372, 35.577, 0.0 ], [ 36.335, 35.224, 0.0 ], [ 36.091, 35.228, 0.0 ], [ 35.949, 35.96, 0.0 ], [ 35.81, 36.119, 0.0 ], [ 36.4, 36.795, 0.0 ], [ 36.617, 37.457, 0.0 ], [ 36.819, 37.63, 0.0 ] ] ] } }
]
}
