{
"type": "FeatureCollection",
"name": "Van Muradiye__GK74",
"crs": { "type": "name", "properties": { "name": "urn:ogc:def:crs:OGC:1.3:CRS84" } },
"features": [
{ "type": "Feature", "properties": { "ID": 5462, "date_decimal": 1976.8963470319634, "year": 1976, "month": 11, "day": 24, "latitude": 39.121, "longitude": 44.029, "mag": 7.1, "place": "47 km S of Do?ubayaz?t, Turkey", "zone_id": 51, "cluster_id": 0, "shock_type": "MS", "mainshock_zone": 51, "same_zone": 1, "days_difference": 0 }, "geometry": { "type": "Point", "coordinates": [ 44.029, 39.121 ] } }
]
}
