{
"type": "FeatureCollection",
"name": "Van Muradiye_GK74",
"crs": { "type": "name", "properties": { "name": "urn:ogc:def:crs:OGC:1.3:CRS84" } },
"features": [
{ "type": "Feature", "properties": { "ID": 5467, "date_decimal": 1976.8634703196346, "year": 1976, "month": 11, "day": 12, "latitude": 38.574, "longitude": 26.711, "mag": 4.87, "place": "11 km SSW of Foça, Turkey", "zone_id": 43, "cluster_id": 0, "shock_type": "MS", "mainshock_zone": 43, "same_zone": 1, "days_difference": -12 }, "geometry": { "type": "Point", "coordinates": [ 26.711, 38.574 ] } },
{ "type": "Feature", "properties": { "ID": 5468, "date_decimal": 1976.8634703196346, "year": 1976, "month": 11, "day": 12, "latitude": 38.62, "longitude": 26.73, "mag": 4.56, "place": "6 km SSW of Foça, Turkey", "zone_id": 43, "cluster_id": 82, "shock_type": "FS", "mainshock_zone": 43, "same_zone": 1, "days_difference": -12 }, "geometry": { "type": "Point", "coordinates": [ 26.73, 38.62 ] } },
{ "type": "Feature", "properties": { "ID": 5466, "date_decimal": 1976.866210045662, "year": 1976, "month": 11, "day": 13, "latitude": 38.61, "longitude": 26.718, "mag": 4.67, "place": "7 km SSW of Foça, Turkey", "zone_id": 43, "cluster_id": 82, "shock_type": "AS", "mainshock_zone": 43, "same_zone": 1, "days_difference": -11 }, "geometry": { "type": "Point", "coordinates": [ 26.718, 38.61 ] } },
{ "type": "Feature", "properties": { "ID": 5465, "date_decimal": 1976.879908675799, "year": 1976, "month": 11, "day": 18, "latitude": 36.861, "longitude": 24.558, "mag": 4.46, "place": "7 km NNW of Kímolos, Greece", "zone_id": 72, "cluster_id": 0, "shock_type": "MS", "mainshock_zone": 72, "same_zone": 1, "days_difference": -6 }, "geometry": { "type": "Point", "coordinates": [ 24.558, 36.861 ] } },
{ "type": "Feature", "properties": { "ID": 5464, "date_decimal": 1976.879908675799, "year": 1976, "month": 11, "day": 18, "latitude": 36.829, "longitude": 24.55, "mag": 4.25, "place": "4 km NNW of Kímolos, Greece", "zone_id": 72, "cluster_id": 83, "shock_type": "FS", "mainshock_zone": 72, "same_zone": 1, "days_difference": -6 }, "geometry": { "type": "Point", "coordinates": [ 24.55, 36.829 ] } },
{ "type": "Feature", "properties": { "ID": 5463, "date_decimal": 1976.8881278538813, "year": 1976, "month": 11, "day": 21, "latitude": 38.38, "longitude": 26.864, "mag": 4.36, "place": "10 km NE of Urla, Turkey", "zone_id": 21, "cluster_id": 82, "shock_type": "AS", "mainshock_zone": 43, "same_zone": 0, "days_difference": -3 }, "geometry": { "type": "Point", "coordinates": [ 26.864, 38.38 ] } },
{ "type": "Feature", "properties": { "ID": 5457, "date_decimal": 1976.8963470319634, "year": 1976, "month": 11, "day": 24, "latitude": 39.157, "longitude": 43.713, "mag": 5.08, "place": "33 km ENE of Erci?, Turkey", "zone_id": 51, "cluster_id": 84, "shock_type": "FS", "mainshock_zone": 51, "same_zone": 1, "days_difference": 0 }, "geometry": { "type": "Point", "coordinates": [ 43.713, 39.157 ] } },
{ "type": "Feature", "properties": { "ID": 5458, "date_decimal": 1976.8963470319634, "year": 1976, "month": 11, "day": 24, "latitude": 39.685, "longitude": 43.738, "mag": 4.67, "place": "17 km NNE of Diyadin, Turkey", "zone_id": 51, "cluster_id": 84, "shock_type": "FS", "mainshock_zone": 51, "same_zone": 1, "days_difference": 0 }, "geometry": { "type": "Point", "coordinates": [ 43.738, 39.685 ] } },
{ "type": "Feature", "properties": { "ID": 5455, "date_decimal": 1976.8963470319634, "year": 1976, "month": 11, "day": 24, "latitude": 39.08, "longitude": 44.045, "mag": 4.98, "place": "47 km N of Özalp, Turkey", "zone_id": 51, "cluster_id": 84, "shock_type": "FS", "mainshock_zone": 51, "same_zone": 1, "days_difference": 0 }, "geometry": { "type": "Point", "coordinates": [ 44.045, 39.08 ] } },
{ "type": "Feature", "properties": { "ID": 5460, "date_decimal": 1976.8963470319634, "year": 1976, "month": 11, "day": 24, "latitude": 39.243, "longitude": 44.267, "mag": 5.7, "place": "37 km SSE of Do?ubayaz?t, Turkey", "zone_id": 51, "cluster_id": 84, "shock_type": "FS", "mainshock_zone": 51, "same_zone": 1, "days_difference": 0 }, "geometry": { "type": "Point", "coordinates": [ 44.267, 39.243 ] } },
{ "type": "Feature", "properties": { "ID": 5461, "date_decimal": 1976.8963470319634, "year": 1976, "month": 11, "day": 24, "latitude": 39.121, "longitude": 43.925, "mag": 5.18, "place": "49 km SSW of Do?ubayaz?t, Turkey", "zone_id": 51, "cluster_id": 84, "shock_type": "FS", "mainshock_zone": 51, "same_zone": 1, "days_difference": 0 }, "geometry": { "type": "Point", "coordinates": [ 43.925, 39.121 ] } },
{ "type": "Feature", "properties": { "ID": 5462, "date_decimal": 1976.8963470319634, "year": 1976, "month": 11, "day": 24, "latitude": 39.121, "longitude": 44.029, "mag": 7.1, "place": "47 km S of Do?ubayaz?t, Turkey", "zone_id": 51, "cluster_id": 0, "shock_type": "MS", "mainshock_zone": 51, "same_zone": 1, "days_difference": 0 }, "geometry": { "type": "Point", "coordinates": [ 44.029, 39.121 ] } },
{ "type": "Feature", "properties": { "ID": 5459, "date_decimal": 1976.8963470319634, "year": 1976, "month": 11, "day": 24, "latitude": 39.071, "longitude": 43.667, "mag": 4.98, "place": "27 km E of Erci?, Turkey", "zone_id": 51, "cluster_id": 84, "shock_type": "FS", "mainshock_zone": 51, "same_zone": 1, "days_difference": 0 }, "geometry": { "type": "Point", "coordinates": [ 43.667, 39.071 ] } },
{ "type": "Feature", "properties": { "ID": 5456, "date_decimal": 1976.8963470319634, "year": 1976, "month": 11, "day": 24, "latitude": 39.019, "longitude": 44.181, "mag": 5.18, "place": "43 km NNE of Özalp, Turkey", "zone_id": 51, "cluster_id": 84, "shock_type": "FS", "mainshock_zone": 51, "same_zone": 1, "days_difference": 0 }, "geometry": { "type": "Point", "coordinates": [ 44.181, 39.019 ] } },
{ "type": "Feature", "properties": { "ID": 5454, "date_decimal": 1976.8990867579907, "year": 1976, "month": 11, "day": 25, "latitude": 39.026, "longitude": 44.29, "mag": 5.18, "place": "48 km NNE of Özalp, Turkey", "zone_id": 51, "cluster_id": 84, "shock_type": "AS", "mainshock_zone": 51, "same_zone": 1, "days_difference": 1 }, "geometry": { "type": "Point", "coordinates": [ 44.29, 39.026 ] } },
{ "type": "Feature", "properties": { "ID": 5453, "date_decimal": 1976.9018264840181, "year": 1976, "month": 11, "day": 26, "latitude": 39.187, "longitude": 44.196, "mag": 4.25, "place": "41 km SSE of Do?ubayaz?t, Turkey", "zone_id": 51, "cluster_id": 84, "shock_type": "AS", "mainshock_zone": 51, "same_zone": 1, "days_difference": 2 }, "geometry": { "type": "Point", "coordinates": [ 44.196, 39.187 ] } },
{ "type": "Feature", "properties": { "ID": 5452, "date_decimal": 1976.9018264840181, "year": 1976, "month": 11, "day": 26, "latitude": 39.003, "longitude": 44.295, "mag": 4.56, "place": "46 km NE of Özalp, Turkey", "zone_id": 51, "cluster_id": 84, "shock_type": "AS", "mainshock_zone": 51, "same_zone": 1, "days_difference": 2 }, "geometry": { "type": "Point", "coordinates": [ 44.295, 39.003 ] } },
{ "type": "Feature", "properties": { "ID": 5451, "date_decimal": 1976.9018264840181, "year": 1976, "month": 11, "day": 26, "latitude": 36.327, "longitude": 27.266, "mag": 4.46, "place": "33 km SSE of Mandráki, Greece", "zone_id": 22, "cluster_id": 85, "shock_type": "FS", "mainshock_zone": 22, "same_zone": 1, "days_difference": 2 }, "geometry": { "type": "Point", "coordinates": [ 27.266, 36.327 ] } },
{ "type": "Feature", "properties": { "ID": 5450, "date_decimal": 1976.9018264840181, "year": 1976, "month": 11, "day": 26, "latitude": 39.028, "longitude": 43.798, "mag": 4.46, "place": "37 km E of Erci?, Turkey", "zone_id": 51, "cluster_id": 84, "shock_type": "AS", "mainshock_zone": 51, "same_zone": 1, "days_difference": 2 }, "geometry": { "type": "Point", "coordinates": [ 43.798, 39.028 ] } },
{ "type": "Feature", "properties": { "ID": 5449, "date_decimal": 1976.9045662100457, "year": 1976, "month": 11, "day": 27, "latitude": 36.327, "longitude": 27.137, "mag": 4.62, "place": "31 km S of Mandráki, Greece", "zone_id": 22, "cluster_id": 0, "shock_type": "MS", "mainshock_zone": 22, "same_zone": 1, "days_difference": 3 }, "geometry": { "type": "Point", "coordinates": [ 27.137, 36.327 ] } },
{ "type": "Feature", "properties": { "ID": 5447, "date_decimal": 1976.907305936073, "year": 1976, "month": 11, "day": 28, "latitude": 39.173, "longitude": 43.872, "mag": 4.67, "place": "44 km SSE of Diyadin, Turkey", "zone_id": 51, "cluster_id": 84, "shock_type": "AS", "mainshock_zone": 51, "same_zone": 1, "days_difference": 4 }, "geometry": { "type": "Point", "coordinates": [ 43.872, 39.173 ] } },
{ "type": "Feature", "properties": { "ID": 5448, "date_decimal": 1976.907305936073, "year": 1976, "month": 11, "day": 28, "latitude": 39.03, "longitude": 44.452, "mag": 4.36, "place": "52 km WNW of Qarah ???’ od D?n, Iran", "zone_id": 51, "cluster_id": 84, "shock_type": "AS", "mainshock_zone": 51, "same_zone": 1, "days_difference": 4 }, "geometry": { "type": "Point", "coordinates": [ 44.452, 39.03 ] } },
{ "type": "Feature", "properties": { "ID": 5446, "date_decimal": 1976.9127853881278, "year": 1976, "month": 11, "day": 30, "latitude": 39.226, "longitude": 44.215, "mag": 4.77, "place": "37 km SSE of Do?ubayaz?t, Turkey", "zone_id": 51, "cluster_id": 84, "shock_type": "AS", "mainshock_zone": 51, "same_zone": 1, "days_difference": 6 }, "geometry": { "type": "Point", "coordinates": [ 44.215, 39.226 ] } },
{ "type": "Feature", "properties": { "ID": 5444, "date_decimal": 1976.9166666666667, "year": 1976, "month": 12, "day": 1, "latitude": 39.574, "longitude": 43.874, "mag": 4.56, "place": "17 km ENE of Diyadin, Turkey", "zone_id": 51, "cluster_id": 84, "shock_type": "AS", "mainshock_zone": 51, "same_zone": 1, "days_difference": 7 }, "geometry": { "type": "Point", "coordinates": [ 43.874, 39.574 ] } },
{ "type": "Feature", "properties": { "ID": 5445, "date_decimal": 1976.9166666666667, "year": 1976, "month": 12, "day": 1, "latitude": 39.278, "longitude": 43.41, "mag": 4.25, "place": "28 km N of Erci?, Turkey", "zone_id": 51, "cluster_id": 84, "shock_type": "AS", "mainshock_zone": 51, "same_zone": 1, "days_difference": 7 }, "geometry": { "type": "Point", "coordinates": [ 43.41, 39.278 ] } },
{ "type": "Feature", "properties": { "ID": 5443, "date_decimal": 1976.9221461187215, "year": 1976, "month": 12, "day": 3, "latitude": 39.054, "longitude": 44.088, "mag": 4.15, "place": "45 km N of Özalp, Turkey", "zone_id": 51, "cluster_id": 84, "shock_type": "AS", "mainshock_zone": 51, "same_zone": 1, "days_difference": 9 }, "geometry": { "type": "Point", "coordinates": [ 44.088, 39.054 ] } },
{ "type": "Feature", "properties": { "ID": 5442, "date_decimal": 1976.924885844749, "year": 1976, "month": 12, "day": 4, "latitude": 39.28, "longitude": 43.574, "mag": 4.98, "place": "30 km SSW of Diyadin, Turkey", "zone_id": 51, "cluster_id": 84, "shock_type": "AS", "mainshock_zone": 51, "same_zone": 1, "days_difference": 10 }, "geometry": { "type": "Point", "coordinates": [ 43.574, 39.28 ] } },
{ "type": "Feature", "properties": { "ID": 5441, "date_decimal": 1976.9276255707764, "year": 1976, "month": 12, "day": 5, "latitude": 39.016, "longitude": 43.8, "mag": 4.36, "place": "38 km E of Erci?, Turkey", "zone_id": 51, "cluster_id": 84, "shock_type": "AS", "mainshock_zone": 51, "same_zone": 1, "days_difference": 11 }, "geometry": { "type": "Point", "coordinates": [ 43.8, 39.016 ] } },
{ "type": "Feature", "properties": { "ID": 5440, "date_decimal": 1976.9303652968038, "year": 1976, "month": 12, "day": 6, "latitude": 39.041, "longitude": 44.399, "mag": 4.56, "place": "55 km NE of Özalp, Turkey", "zone_id": 51, "cluster_id": 84, "shock_type": "AS", "mainshock_zone": 51, "same_zone": 1, "days_difference": 12 }, "geometry": { "type": "Point", "coordinates": [ 44.399, 39.041 ] } },
{ "type": "Feature", "properties": { "ID": 5439, "date_decimal": 1976.9303652968038, "year": 1976, "month": 12, "day": 6, "latitude": 38.894, "longitude": 44.439, "mag": 4.56, "place": "47 km NE of Özalp, Turkey", "zone_id": 51, "cluster_id": 84, "shock_type": "AS", "mainshock_zone": 51, "same_zone": 1, "days_difference": 12 }, "geometry": { "type": "Point", "coordinates": [ 44.439, 38.894 ] } },
{ "type": "Feature", "properties": { "ID": 5438, "date_decimal": 1976.9440639269408, "year": 1976, "month": 12, "day": 11, "latitude": 39.024, "longitude": 44.259, "mag": 4.15, "place": "47 km NNE of Özalp, Turkey", "zone_id": 51, "cluster_id": 84, "shock_type": "AS", "mainshock_zone": 51, "same_zone": 1, "days_difference": 17 }, "geometry": { "type": "Point", "coordinates": [ 44.259, 39.024 ] } },
{ "type": "Feature", "properties": { "ID": 5437, "date_decimal": 1976.9468036529681, "year": 1976, "month": 12, "day": 12, "latitude": 38.989, "longitude": 44.235, "mag": 4.98, "place": "42 km NNE of Özalp, Turkey", "zone_id": 51, "cluster_id": 84, "shock_type": "AS", "mainshock_zone": 51, "same_zone": 1, "days_difference": 18 }, "geometry": { "type": "Point", "coordinates": [ 44.235, 38.989 ] } },
{ "type": "Feature", "properties": { "ID": 5436, "date_decimal": 1976.9796803652969, "year": 1976, "month": 12, "day": 24, "latitude": 36.237, "longitude": 26.756, "mag": 4.56, "place": "50 km SE of Astypálaia, Greece", "zone_id": 22, "cluster_id": 85, "shock_type": "AS", "mainshock_zone": 22, "same_zone": 1, "days_difference": 30 }, "geometry": { "type": "Point", "coordinates": [ 26.756, 36.237 ] } },
{ "type": "Feature", "properties": { "ID": 5435, "date_decimal": 1976.9824200913242, "year": 1976, "month": 12, "day": 25, "latitude": 39.026, "longitude": 44.33, "mag": 4.67, "place": "50 km NE of Özalp, Turkey", "zone_id": 51, "cluster_id": 84, "shock_type": "AS", "mainshock_zone": 51, "same_zone": 1, "days_difference": 31 }, "geometry": { "type": "Point", "coordinates": [ 44.33, 39.026 ] } },
{ "type": "Feature", "properties": { "ID": 5434, "date_decimal": 1976.9906392694065, "year": 1976, "month": 12, "day": 28, "latitude": 39.294, "longitude": 43.508, "mag": 4.56, "place": "30 km SSW of Diyadin, Turkey", "zone_id": 51, "cluster_id": 84, "shock_type": "AS", "mainshock_zone": 51, "same_zone": 1, "days_difference": 34 }, "geometry": { "type": "Point", "coordinates": [ 43.508, 39.294 ] } },
{ "type": "Feature", "properties": { "ID": 5433, "date_decimal": 1977.0, "year": 1977, "month": 1, "day": 1, "latitude": 39.197, "longitude": 43.458, "mag": 5.18, "place": "20 km NNE of Erci?, Turkey", "zone_id": 51, "cluster_id": 84, "shock_type": "AS", "mainshock_zone": 51, "same_zone": 1, "days_difference": 38 }, "geometry": { "type": "Point", "coordinates": [ 43.458, 39.197 ] } },
{ "type": "Feature", "properties": { "ID": 5432, "date_decimal": 1977.0027397260274, "year": 1977, "month": 1, "day": 2, "latitude": 39.239, "longitude": 43.569, "mag": 5.08, "place": "29 km NE of Erci?, Turkey", "zone_id": 51, "cluster_id": 84, "shock_type": "AS", "mainshock_zone": 51, "same_zone": 1, "days_difference": 39 }, "geometry": { "type": "Point", "coordinates": [ 43.569, 39.239 ] } },
{ "type": "Feature", "properties": { "ID": 5431, "date_decimal": 1977.0246575342467, "year": 1977, "month": 1, "day": 10, "latitude": 39.583, "longitude": 27.403, "mag": 4.25, "place": "7 km W of ?vrindi, Turkey", "zone_id": 26, "cluster_id": 0, "shock_type": "MS", "mainshock_zone": 26, "same_zone": 1, "days_difference": 47 }, "geometry": { "type": "Point", "coordinates": [ 27.403, 39.583 ] } },
{ "type": "Feature", "properties": { "ID": 5430, "date_decimal": 1977.0438356164384, "year": 1977, "month": 1, "day": 17, "latitude": 39.172, "longitude": 43.518, "mag": 5.18, "place": "21 km NE of Erci?, Turkey", "zone_id": 51, "cluster_id": 84, "shock_type": "AS", "mainshock_zone": 51, "same_zone": 1, "days_difference": 54 }, "geometry": { "type": "Point", "coordinates": [ 43.518, 39.172 ] } },
{ "type": "Feature", "properties": { "ID": 5429, "date_decimal": 1977.0465753424658, "year": 1977, "month": 1, "day": 18, "latitude": 35.782, "longitude": 29.413, "mag": 4.56, "place": "50 km SSW of Ka?, Turkey", "zone_id": 81, "cluster_id": 0, "shock_type": "MS", "mainshock_zone": 81, "same_zone": 1, "days_difference": 55 }, "geometry": { "type": "Point", "coordinates": [ 29.413, 35.782 ] } },
{ "type": "Feature", "properties": { "ID": 5428, "date_decimal": 1977.0657534246575, "year": 1977, "month": 1, "day": 25, "latitude": 39.361, "longitude": 28.128, "mag": 4.77, "place": "3 km S of Bigadiç, Turkey", "zone_id": 35, "cluster_id": 0, "shock_type": "MS", "mainshock_zone": 35, "same_zone": 1, "days_difference": 62 }, "geometry": { "type": "Point", "coordinates": [ 28.128, 39.361 ] } },
{ "type": "Feature", "properties": { "ID": 5427, "date_decimal": 1977.0915525114156, "year": 1977, "month": 2, "day": 4, "latitude": 38.942, "longitude": 44.021, "mag": 4.87, "place": "32 km N of Özalp, Turkey", "zone_id": 51, "cluster_id": 84, "shock_type": "AS", "mainshock_zone": 51, "same_zone": 1, "days_difference": 72 }, "geometry": { "type": "Point", "coordinates": [ 44.021, 38.942 ] } },
{ "type": "Feature", "properties": { "ID": 5426, "date_decimal": 1977.129908675799, "year": 1977, "month": 2, "day": 18, "latitude": 40.357, "longitude": 41.717, "mag": 4.67, "place": "12 km W of Narman, Turkey", "zone_id": 61, "cluster_id": 0, "shock_type": "MS", "mainshock_zone": 61, "same_zone": 1, "days_difference": 86 }, "geometry": { "type": "Point", "coordinates": [ 41.717, 40.357 ] } },
{ "type": "Feature", "properties": { "ID": 5425, "date_decimal": 1977.1381278538813, "year": 1977, "month": 2, "day": 21, "latitude": 39.911, "longitude": 40.031, "mag": 4.77, "place": "6 km S of Otlukbeli, Turkey", "zone_id": 61, "cluster_id": 0, "shock_type": "MS", "mainshock_zone": 61, "same_zone": 1, "days_difference": 89 }, "geometry": { "type": "Point", "coordinates": [ 40.031, 39.911 ] } },
{ "type": "Feature", "properties": { "ID": 5423, "date_decimal": 1977.1463470319634, "year": 1977, "month": 2, "day": 24, "latitude": 38.737, "longitude": 27.72, "mag": 5.18, "place": "13 km E of Saruhanl?, Turkey", "zone_id": 21, "cluster_id": 0, "shock_type": "MS", "mainshock_zone": 21, "same_zone": 1, "days_difference": 92 }, "geometry": { "type": "Point", "coordinates": [ 27.72, 38.737 ] } },
{ "type": "Feature", "properties": { "ID": 5424, "date_decimal": 1977.1463470319634, "year": 1977, "month": 2, "day": 24, "latitude": 37.889, "longitude": 26.772, "mag": 4.15, "place": "12 km NNE of Néon Karlovásion, Greece", "zone_id": 68, "cluster_id": 0, "shock_type": "MS", "mainshock_zone": 68, "same_zone": 1, "days_difference": 92 }, "geometry": { "type": "Point", "coordinates": [ 26.772, 37.889 ] } },
{ "type": "Feature", "properties": { "ID": 5422, "date_decimal": 1977.1858447488585, "year": 1977, "month": 3, "day": 8, "latitude": 36.543, "longitude": 28.439, "mag": 4.25, "place": "22 km ENE of Ródos, Greece", "zone_id": 69, "cluster_id": 0, "shock_type": "MS", "mainshock_zone": 69, "same_zone": 1, "days_difference": 104 }, "geometry": { "type": "Point", "coordinates": [ 28.439, 36.543 ] } },
{ "type": "Feature", "properties": { "ID": 5421, "date_decimal": 1977.2022831050228, "year": 1977, "month": 3, "day": 14, "latitude": 41.531, "longitude": 44.129, "mag": 4.67, "place": "7 km SSE of Ts’alk’a, Georgia", "zone_id": 47, "cluster_id": 0, "shock_type": "MS", "mainshock_zone": 47, "same_zone": 1, "days_difference": 110 }, "geometry": { "type": "Point", "coordinates": [ 44.129, 41.531 ] } },
{ "type": "Feature", "properties": { "ID": 5420, "date_decimal": 1977.2269406392695, "year": 1977, "month": 3, "day": 23, "latitude": 39.659, "longitude": 28.547, "mag": 4.77, "place": "10 km NW of Dursunbey, Turkey", "zone_id": 26, "cluster_id": 0, "shock_type": "MS", "mainshock_zone": 26, "same_zone": 1, "days_difference": 119 }, "geometry": { "type": "Point", "coordinates": [ 28.547, 39.659 ] } },
{ "type": "Feature", "properties": { "ID": 5419, "date_decimal": 1977.2324200913242, "year": 1977, "month": 3, "day": 25, "latitude": 38.562, "longitude": 40.024, "mag": 5.39, "place": "8 km W of Ar?cak, Turkey", "zone_id": 999, "cluster_id": 75, "shock_type": "AS", "mainshock_zone": 30, "same_zone": 0, "days_difference": 121 }, "geometry": { "type": "Point", "coordinates": [ 40.024, 38.562 ] } },
{ "type": "Feature", "properties": { "ID": 5418, "date_decimal": 1977.2351598173516, "year": 1977, "month": 3, "day": 26, "latitude": 39.332, "longitude": 43.424, "mag": 5.18, "place": "31 km SW of Diyadin, Turkey", "zone_id": 51, "cluster_id": 84, "shock_type": "AS", "mainshock_zone": 51, "same_zone": 1, "days_difference": 122 }, "geometry": { "type": "Point", "coordinates": [ 43.424, 39.332 ] } },
{ "type": "Feature", "properties": { "ID": 5417, "date_decimal": 1977.2406392694065, "year": 1977, "month": 3, "day": 28, "latitude": 36.803, "longitude": 27.506, "mag": 4.98, "place": "17 km WNW of Datça, Turkey", "zone_id": 84, "cluster_id": 0, "shock_type": "MS", "mainshock_zone": 84, "same_zone": 1, "days_difference": 124 }, "geometry": { "type": "Point", "coordinates": [ 27.506, 36.803 ] } },
{ "type": "Feature", "properties": { "ID": 5416, "date_decimal": 1977.277397260274, "year": 1977, "month": 4, "day": 11, "latitude": 36.932, "longitude": 30.685, "mag": 4.77, "place": "2 km NNW of Antalya, Turkey", "zone_id": 17, "cluster_id": 0, "shock_type": "MS", "mainshock_zone": 17, "same_zone": 1, "days_difference": 138 }, "geometry": { "type": "Point", "coordinates": [ 30.685, 36.932 ] } },
{ "type": "Feature", "properties": { "ID": 5415, "date_decimal": 1977.3184931506848, "year": 1977, "month": 4, "day": 26, "latitude": 39.323, "longitude": 43.512, "mag": 4.56, "place": "27 km SSW of Diyadin, Turkey", "zone_id": 51, "cluster_id": 84, "shock_type": "AS", "mainshock_zone": 51, "same_zone": 1, "days_difference": 153 }, "geometry": { "type": "Point", "coordinates": [ 43.512, 39.323 ] } },
{ "type": "Feature", "properties": { "ID": 5414, "date_decimal": 1977.3360730593606, "year": 1977, "month": 5, "day": 2, "latitude": 39.569, "longitude": 44.008, "mag": 4.87, "place": "6 km WNW of Do?ubayaz?t, Turkey", "zone_id": 51, "cluster_id": 84, "shock_type": "AS", "mainshock_zone": 51, "same_zone": 1, "days_difference": 159 }, "geometry": { "type": "Point", "coordinates": [ 44.008, 39.569 ] } },
{ "type": "Feature", "properties": { "ID": 5413, "date_decimal": 1977.3689497716894, "year": 1977, "month": 5, "day": 14, "latitude": 38.774, "longitude": 40.019, "mag": 4.87, "place": "12 km NE of Palu, Turkey", "zone_id": 999, "cluster_id": 0, "shock_type": "MS", "mainshock_zone": 999, "same_zone": 1, "days_difference": 171 }, "geometry": { "type": "Point", "coordinates": [ 40.019, 38.774 ] } },
{ "type": "Feature", "properties": { "ID": 5412, "date_decimal": 1977.379908675799, "year": 1977, "month": 5, "day": 18, "latitude": 40.351, "longitude": 26.452, "mag": 4.54, "place": "19 km WSW of Gelibolu, Turkey", "zone_id": 8, "cluster_id": 73, "shock_type": "AS", "mainshock_zone": 8, "same_zone": 1, "days_difference": 175 }, "geometry": { "type": "Point", "coordinates": [ 26.452, 40.351 ] } },
{ "type": "Feature", "properties": { "ID": 5411, "date_decimal": 1977.3881278538813, "year": 1977, "month": 5, "day": 21, "latitude": 36.493, "longitude": 27.085, "mag": 4.25, "place": "13 km SSW of Mandráki, Greece", "zone_id": 84, "cluster_id": 87, "shock_type": "FS", "mainshock_zone": 84, "same_zone": 1, "days_difference": 178 }, "geometry": { "type": "Point", "coordinates": [ 27.085, 36.493 ] } },
{ "type": "Feature", "properties": { "ID": 5409, "date_decimal": 1977.4018264840181, "year": 1977, "month": 5, "day": 26, "latitude": 38.96, "longitude": 44.38, "mag": 4.98, "place": "48 km NE of Özalp, Turkey", "zone_id": 51, "cluster_id": 84, "shock_type": "AS", "mainshock_zone": 51, "same_zone": 1, "days_difference": 183 }, "geometry": { "type": "Point", "coordinates": [ 44.38, 38.96 ] } },
{ "type": "Feature", "properties": { "ID": 5410, "date_decimal": 1977.4018264840181, "year": 1977, "month": 5, "day": 26, "latitude": 38.934, "longitude": 44.38, "mag": 5.71, "place": "46 km NE of Özalp, Turkey", "zone_id": 51, "cluster_id": 84, "shock_type": "AS", "mainshock_zone": 51, "same_zone": 1, "days_difference": 183 }, "geometry": { "type": "Point", "coordinates": [ 44.38, 38.934 ] } },
{ "type": "Feature", "properties": { "ID": 5407, "date_decimal": 1977.4127853881278, "year": 1977, "month": 5, "day": 30, "latitude": 38.934, "longitude": 44.516, "mag": 4.36, "place": "44 km W of Qarah ???’ od D?n, Iran", "zone_id": 51, "cluster_id": 84, "shock_type": "AS", "mainshock_zone": 51, "same_zone": 1, "days_difference": 187 }, "geometry": { "type": "Point", "coordinates": [ 44.516, 38.934 ] } },
{ "type": "Feature", "properties": { "ID": 5406, "date_decimal": 1977.4127853881278, "year": 1977, "month": 5, "day": 30, "latitude": 38.912, "longitude": 44.271, "mag": 4.77, "place": "37 km NE of Özalp, Turkey", "zone_id": 51, "cluster_id": 84, "shock_type": "AS", "mainshock_zone": 51, "same_zone": 1, "days_difference": 187 }, "geometry": { "type": "Point", "coordinates": [ 44.271, 38.912 ] } },
{ "type": "Feature", "properties": { "ID": 5408, "date_decimal": 1977.4127853881278, "year": 1977, "month": 5, "day": 30, "latitude": 39.053, "longitude": 44.319, "mag": 5.08, "place": "52 km NNE of Özalp, Turkey", "zone_id": 51, "cluster_id": 84, "shock_type": "AS", "mainshock_zone": 51, "same_zone": 1, "days_difference": 187 }, "geometry": { "type": "Point", "coordinates": [ 44.319, 39.053 ] } },
{ "type": "Feature", "properties": { "ID": 5405, "date_decimal": 1977.4166666666667, "year": 1977, "month": 6, "day": 1, "latitude": 36.243, "longitude": 31.344, "mag": 5.9, "place": "55 km SW of Okurcalar, Turkey", "zone_id": 17, "cluster_id": 0, "shock_type": "MS", "mainshock_zone": 17, "same_zone": 1, "days_difference": 189 }, "geometry": { "type": "Point", "coordinates": [ 31.344, 36.243 ] } },
{ "type": "Feature", "properties": { "ID": 5404, "date_decimal": 1977.4358447488585, "year": 1977, "month": 6, "day": 8, "latitude": 36.207, "longitude": 28.774, "mag": 4.15, "place": "51 km SW of Ölüdeniz, Turkey", "zone_id": 23, "cluster_id": 0, "shock_type": "MS", "mainshock_zone": 23, "same_zone": 1, "days_difference": 196 }, "geometry": { "type": "Point", "coordinates": [ 28.774, 36.207 ] } },
{ "type": "Feature", "properties": { "ID": 5403, "date_decimal": 1977.4632420091325, "year": 1977, "month": 6, "day": 18, "latitude": 41.974, "longitude": 43.977, "mag": 4.67, "place": "11 km W of Gori, Georgia", "zone_id": 62, "cluster_id": 0, "shock_type": "MS", "mainshock_zone": 62, "same_zone": 1, "days_difference": 206 }, "geometry": { "type": "Point", "coordinates": [ 43.977, 41.974 ] } },
{ "type": "Feature", "properties": { "ID": 5402, "date_decimal": 1977.4714611872148, "year": 1977, "month": 6, "day": 21, "latitude": 35.566, "longitude": 29.599, "mag": 4.87, "place": "70 km S of Ka?, Turkey", "zone_id": 79, "cluster_id": 0, "shock_type": "MS", "mainshock_zone": 79, "same_zone": 1, "days_difference": 209 }, "geometry": { "type": "Point", "coordinates": [ 29.599, 35.566 ] } },
{ "type": "Feature", "properties": { "ID": 5401, "date_decimal": 1977.4878995433792, "year": 1977, "month": 6, "day": 27, "latitude": 35.721, "longitude": 27.301, "mag": 4.36, "place": "25 km NNE of Karpathos, Greece", "zone_id": 83, "cluster_id": 0, "shock_type": "MS", "mainshock_zone": 83, "same_zone": 1, "days_difference": 215 }, "geometry": { "type": "Point", "coordinates": [ 27.301, 35.721 ] } },
{ "type": "Feature", "properties": { "ID": 5400, "date_decimal": 1977.5027397260274, "year": 1977, "month": 7, "day": 2, "latitude": 36.049, "longitude": 30.915, "mag": 4.67, "place": "61 km SE of Tekirova, Turkey", "zone_id": 16, "cluster_id": 88, "shock_type": "AS", "mainshock_zone": 17, "same_zone": 0, "days_difference": 220 }, "geometry": { "type": "Point", "coordinates": [ 30.915, 36.049 ] } },
{ "type": "Feature", "properties": { "ID": 5399, "date_decimal": 1977.5191780821917, "year": 1977, "month": 7, "day": 8, "latitude": 39.508, "longitude": 41.237, "mag": 4.67, "place": "27 km WSW of Tekman, Turkey", "zone_id": 44, "cluster_id": 0, "shock_type": "MS", "mainshock_zone": 44, "same_zone": 1, "days_difference": 226 }, "geometry": { "type": "Point", "coordinates": [ 41.237, 39.508 ] } },
{ "type": "Feature", "properties": { "ID": 5398, "date_decimal": 1977.5246575342467, "year": 1977, "month": 7, "day": 10, "latitude": 36.751, "longitude": 25.753, "mag": 4.46, "place": "15 km SW of Amorgós, Greece", "zone_id": 70, "cluster_id": 0, "shock_type": "MS", "mainshock_zone": 70, "same_zone": 1, "days_difference": 228 }, "geometry": { "type": "Point", "coordinates": [ 25.753, 36.751 ] } },
{ "type": "Feature", "properties": { "ID": 5397, "date_decimal": 1977.5301369863014, "year": 1977, "month": 7, "day": 12, "latitude": 36.627, "longitude": 26.964, "mag": 4.46, "place": "13 km S of Kéfalos, Greece", "zone_id": 84, "cluster_id": 0, "shock_type": "MS", "mainshock_zone": 84, "same_zone": 1, "days_difference": 230 }, "geometry": { "type": "Point", "coordinates": [ 26.964, 36.627 ] } },
{ "type": "Feature", "properties": { "ID": 5396, "date_decimal": 1977.5356164383561, "year": 1977, "month": 7, "day": 14, "latitude": 36.215, "longitude": 27.707, "mag": 4.25, "place": "13 km W of Émponas, Greece", "zone_id": 83, "cluster_id": 0, "shock_type": "MS", "mainshock_zone": 83, "same_zone": 1, "days_difference": 232 }, "geometry": { "type": "Point", "coordinates": [ 27.707, 36.215 ] } },
{ "type": "Feature", "properties": { "ID": 5395, "date_decimal": 1977.5438356164384, "year": 1977, "month": 7, "day": 17, "latitude": 38.636, "longitude": 39.852, "mag": 4.46, "place": "8 km SW of Palu, Turkey", "zone_id": 999, "cluster_id": 86, "shock_type": "AS", "mainshock_zone": 999, "same_zone": 1, "days_difference": 235 }, "geometry": { "type": "Point", "coordinates": [ 39.852, 38.636 ] } },
{ "type": "Feature", "properties": { "ID": 5394, "date_decimal": 1977.5575342465754, "year": 1977, "month": 7, "day": 22, "latitude": 36.119, "longitude": 24.752, "mag": 4.25, "place": "58 km SSW of Folégandros, Greece", "zone_id": 70, "cluster_id": 0, "shock_type": "MS", "mainshock_zone": 70, "same_zone": 1, "days_difference": 240 }, "geometry": { "type": "Point", "coordinates": [ 24.752, 36.119 ] } },
{ "type": "Feature", "properties": { "ID": 5393, "date_decimal": 1977.629908675799, "year": 1977, "month": 8, "day": 18, "latitude": 39.671, "longitude": 25.533, "mag": 4.87, "place": "46 km ESE of Mýrina, Greece", "zone_id": 77, "cluster_id": 0, "shock_type": "MS", "mainshock_zone": 77, "same_zone": 1, "days_difference": 267 }, "geometry": { "type": "Point", "coordinates": [ 25.533, 39.671 ] } },
{ "type": "Feature", "properties": { "ID": 5392, "date_decimal": 1977.7050228310502, "year": 1977, "month": 9, "day": 15, "latitude": 39.132, "longitude": 43.904, "mag": 4.87, "place": "48 km ENE of Erci?, Turkey", "zone_id": 51, "cluster_id": 84, "shock_type": "AS", "mainshock_zone": 51, "same_zone": 1, "days_difference": 295 }, "geometry": { "type": "Point", "coordinates": [ 43.904, 39.132 ] } },
{ "type": "Feature", "properties": { "ID": 5391, "date_decimal": 1977.7324200913242, "year": 1977, "month": 9, "day": 25, "latitude": 38.689, "longitude": 31.05, "mag": 4.46, "place": "2 km S of Bolvadin, Turkey", "zone_id": 38, "cluster_id": 0, "shock_type": "MS", "mainshock_zone": 38, "same_zone": 1, "days_difference": 305 }, "geometry": { "type": "Point", "coordinates": [ 31.05, 38.689 ] } },
{ "type": "Feature", "properties": { "ID": 5390, "date_decimal": 1977.7461187214612, "year": 1977, "month": 9, "day": 30, "latitude": 40.082, "longitude": 44.989, "mag": 4.98, "place": "18 km WSW of Tsovasar, Armenia", "zone_id": 50, "cluster_id": 0, "shock_type": "MS", "mainshock_zone": 50, "same_zone": 1, "days_difference": 310 }, "geometry": { "type": "Point", "coordinates": [ 44.989, 40.082 ] } },
{ "type": "Feature", "properties": { "ID": 5389, "date_decimal": 1977.7609589041097, "year": 1977, "month": 10, "day": 5, "latitude": 40.963, "longitude": 33.411, "mag": 5.89, "place": "17 km E of Bayramören, Turkey", "zone_id": 2, "cluster_id": 0, "shock_type": "MS", "mainshock_zone": 2, "same_zone": 1, "days_difference": 315 }, "geometry": { "type": "Point", "coordinates": [ 33.411, 40.963 ] } },
{ "type": "Feature", "properties": { "ID": 5388, "date_decimal": 1977.7746575342467, "year": 1977, "month": 10, "day": 10, "latitude": 35.589, "longitude": 27.218, "mag": 4.15, "place": "9 km N of Karpathos, Greece", "zone_id": 83, "cluster_id": 90, "shock_type": "FS", "mainshock_zone": 83, "same_zone": 1, "days_difference": 320 }, "geometry": { "type": "Point", "coordinates": [ 27.218, 35.589 ] } },
{ "type": "Feature", "properties": { "ID": 5387, "date_decimal": 1977.7856164383561, "year": 1977, "month": 10, "day": 14, "latitude": 37.418, "longitude": 31.996, "mag": 4.36, "place": "Western Turkey", "zone_id": 41, "cluster_id": 0, "shock_type": "MS", "mainshock_zone": 41, "same_zone": 1, "days_difference": 324 }, "geometry": { "type": "Point", "coordinates": [ 31.996, 37.418 ] } },
{ "type": "Feature", "properties": { "ID": 5386, "date_decimal": 1977.7993150684931, "year": 1977, "month": 10, "day": 19, "latitude": 39.067, "longitude": 29.909, "mag": 4.98, "place": "16 km SSE of Aslanapa, Turkey", "zone_id": 36, "cluster_id": 0, "shock_type": "MS", "mainshock_zone": 36, "same_zone": 1, "days_difference": 329 }, "geometry": { "type": "Point", "coordinates": [ 29.909, 39.067 ] } },
{ "type": "Feature", "properties": { "ID": 5385, "date_decimal": 1977.8212328767124, "year": 1977, "month": 10, "day": 27, "latitude": 37.957, "longitude": 27.882, "mag": 5.18, "place": "12 km NNE of Ayd?n, Turkey", "zone_id": 68, "cluster_id": 0, "shock_type": "MS", "mainshock_zone": 68, "same_zone": 1, "days_difference": 337 }, "geometry": { "type": "Point", "coordinates": [ 27.882, 37.957 ] } },
{ "type": "Feature", "properties": { "ID": 5384, "date_decimal": 1977.8239726027398, "year": 1977, "month": 10, "day": 28, "latitude": 37.924, "longitude": 27.835, "mag": 4.54, "place": "8 km N of Ayd?n, Turkey", "zone_id": 68, "cluster_id": 91, "shock_type": "AS", "mainshock_zone": 68, "same_zone": 1, "days_difference": 338 }, "geometry": { "type": "Point", "coordinates": [ 27.835, 37.924 ] } },
{ "type": "Feature", "properties": { "ID": 5383, "date_decimal": 1977.8239726027398, "year": 1977, "month": 10, "day": 28, "latitude": 37.992, "longitude": 27.95, "mag": 4.15, "place": "13 km SW of Bademli, Turkey", "zone_id": 68, "cluster_id": 91, "shock_type": "AS", "mainshock_zone": 68, "same_zone": 1, "days_difference": 338 }, "geometry": { "type": "Point", "coordinates": [ 27.95, 37.992 ] } },
{ "type": "Feature", "properties": { "ID": 5382, "date_decimal": 1977.838812785388, "year": 1977, "month": 11, "day": 3, "latitude": 39.283, "longitude": 43.498, "mag": 5.28, "place": "30 km NNE of Erci?, Turkey", "zone_id": 51, "cluster_id": 84, "shock_type": "AS", "mainshock_zone": 51, "same_zone": 1, "days_difference": 344 }, "geometry": { "type": "Point", "coordinates": [ 43.498, 39.283 ] } },
{ "type": "Feature", "properties": { "ID": 5381, "date_decimal": 1977.8579908675799, "year": 1977, "month": 11, "day": 10, "latitude": 37.996, "longitude": 27.708, "mag": 4.15, "place": "10 km SSW of Tire, Turkey", "zone_id": 68, "cluster_id": 91, "shock_type": "AS", "mainshock_zone": 68, "same_zone": 1, "days_difference": 351 }, "geometry": { "type": "Point", "coordinates": [ 27.708, 37.996 ] } },
{ "type": "Feature", "properties": { "ID": 5380, "date_decimal": 1977.8579908675799, "year": 1977, "month": 11, "day": 10, "latitude": 35.811, "longitude": 27.395, "mag": 4.25, "place": "37 km NNE of Karpathos, Greece", "zone_id": 83, "cluster_id": 0, "shock_type": "MS", "mainshock_zone": 83, "same_zone": 1, "days_difference": 351 }, "geometry": { "type": "Point", "coordinates": [ 27.395, 35.811 ] } },
{ "type": "Feature", "properties": { "ID": 5379, "date_decimal": 1977.9045662100457, "year": 1977, "month": 11, "day": 27, "latitude": 37.724, "longitude": 32.043, "mag": 4.36, "place": "28 km E of Bey?ehir, Turkey", "zone_id": 41, "cluster_id": 0, "shock_type": "MS", "mainshock_zone": 41, "same_zone": 1, "days_difference": 368 }, "geometry": { "type": "Point", "coordinates": [ 32.043, 37.724 ] } },
{ "type": "Feature", "properties": { "ID": 5378, "date_decimal": 1977.907305936073, "year": 1977, "month": 11, "day": 28, "latitude": 36.05, "longitude": 27.761, "mag": 5.8, "place": "Dodecanese Islands, Greece", "zone_id": 83, "cluster_id": 0, "shock_type": "MS", "mainshock_zone": 83, "same_zone": 1, "days_difference": 369 }, "geometry": { "type": "Point", "coordinates": [ 27.761, 36.05 ] } },
{ "type": "Feature", "properties": { "ID": 5376, "date_decimal": 1977.9385844748858, "year": 1977, "month": 12, "day": 9, "latitude": 39.374, "longitude": 28.552, "mag": 4.46, "place": "24 km SSW of Dursunbey, Turkey", "zone_id": 36, "cluster_id": 0, "shock_type": "MS", "mainshock_zone": 36, "same_zone": 1, "days_difference": 380 }, "geometry": { "type": "Point", "coordinates": [ 28.552, 39.374 ] } },
{ "type": "Feature", "properties": { "ID": 5377, "date_decimal": 1977.9385844748858, "year": 1977, "month": 12, "day": 9, "latitude": 38.348, "longitude": 27.193, "mag": 4.77, "place": "5 km ESE of Karaba?lar, Turkey", "zone_id": 21, "cluster_id": 93, "shock_type": "FS", "mainshock_zone": 21, "same_zone": 1, "days_difference": 380 }, "geometry": { "type": "Point", "coordinates": [ 27.193, 38.348 ] } },
{ "type": "Feature", "properties": { "ID": 5375, "date_decimal": 1977.9440639269408, "year": 1977, "month": 12, "day": 11, "latitude": 37.226, "longitude": 35.998, "mag": 4.87, "place": "18 km SSW of Kadirli, Turkey", "zone_id": 6, "cluster_id": 0, "shock_type": "MS", "mainshock_zone": 6, "same_zone": 1, "days_difference": 382 }, "geometry": { "type": "Point", "coordinates": [ 35.998, 37.226 ] } },
{ "type": "Feature", "properties": { "ID": 5374, "date_decimal": 1977.9577625570778, "year": 1977, "month": 12, "day": 16, "latitude": 38.436, "longitude": 27.216, "mag": 5.49, "place": "7 km ENE of ?zmir, Turkey", "zone_id": 21, "cluster_id": 0, "shock_type": "MS", "mainshock_zone": 21, "same_zone": 1, "days_difference": 387 }, "geometry": { "type": "Point", "coordinates": [ 27.216, 38.436 ] } },
{ "type": "Feature", "properties": { "ID": 5373, "date_decimal": 1978.0027397260274, "year": 1978, "month": 1, "day": 2, "latitude": 41.54, "longitude": 44.244, "mag": 5.49, "place": "8 km W of Jvara, Georgia", "zone_id": 47, "cluster_id": 0, "shock_type": "MS", "mainshock_zone": 47, "same_zone": 1, "days_difference": 404 }, "geometry": { "type": "Point", "coordinates": [ 44.244, 41.54 ] } },
{ "type": "Feature", "properties": { "ID": 5372, "date_decimal": 1978.0164383561644, "year": 1978, "month": 1, "day": 7, "latitude": 40.051, "longitude": 42.329, "mag": 4.87, "place": "14 km E of Horasan, Turkey", "zone_id": 52, "cluster_id": 0, "shock_type": "MS", "mainshock_zone": 52, "same_zone": 1, "days_difference": 409 }, "geometry": { "type": "Point", "coordinates": [ 42.329, 40.051 ] } },
{ "type": "Feature", "properties": { "ID": 5371, "date_decimal": 1978.027397260274, "year": 1978, "month": 1, "day": 11, "latitude": 37.482, "longitude": 28.828, "mag": 4.67, "place": "4 km NNW of Kale, Turkey", "zone_id": 27, "cluster_id": 0, "shock_type": "MS", "mainshock_zone": 27, "same_zone": 1, "days_difference": 413 }, "geometry": { "type": "Point", "coordinates": [ 28.828, 37.482 ] } },
{ "type": "Feature", "properties": { "ID": 5370, "date_decimal": 1978.0438356164384, "year": 1978, "month": 1, "day": 17, "latitude": 38.582, "longitude": 40.677, "mag": 4.77, "place": "14 km NNE of Lice, Turkey", "zone_id": 30, "cluster_id": 75, "shock_type": "AS", "mainshock_zone": 30, "same_zone": 1, "days_difference": 419 }, "geometry": { "type": "Point", "coordinates": [ 40.677, 38.582 ] } },
{ "type": "Feature", "properties": { "ID": 5369, "date_decimal": 1978.0438356164384, "year": 1978, "month": 1, "day": 17, "latitude": 40.872, "longitude": 44.142, "mag": 4.87, "place": "4 km NNE of Mets Parni, Armenia", "zone_id": 48, "cluster_id": 0, "shock_type": "MS", "mainshock_zone": 48, "same_zone": 1, "days_difference": 419 }, "geometry": { "type": "Point", "coordinates": [ 44.142, 40.872 ] } },
{ "type": "Feature", "properties": { "ID": 5368, "date_decimal": 1978.0739726027398, "year": 1978, "month": 1, "day": 28, "latitude": 39.401, "longitude": 43.495, "mag": 4.67, "place": "21 km SW of Diyadin, Turkey", "zone_id": 51, "cluster_id": 84, "shock_type": "AS", "mainshock_zone": 51, "same_zone": 1, "days_difference": 430 }, "geometry": { "type": "Point", "coordinates": [ 43.495, 39.401 ] } },
{ "type": "Feature", "properties": { "ID": 5367, "date_decimal": 1978.0970319634703, "year": 1978, "month": 2, "day": 6, "latitude": 39.596, "longitude": 43.745, "mag": 4.87, "place": "8 km NE of Diyadin, Turkey", "zone_id": 51, "cluster_id": 84, "shock_type": "AS", "mainshock_zone": 51, "same_zone": 1, "days_difference": 439 }, "geometry": { "type": "Point", "coordinates": [ 43.745, 39.596 ] } },
{ "type": "Feature", "properties": { "ID": 5366, "date_decimal": 1978.0970319634703, "year": 1978, "month": 2, "day": 6, "latitude": 39.276, "longitude": 44.235, "mag": 4.67, "place": "32 km SSE of Do?ubayaz?t, Turkey", "zone_id": 51, "cluster_id": 84, "shock_type": "AS", "mainshock_zone": 51, "same_zone": 1, "days_difference": 439 }, "geometry": { "type": "Point", "coordinates": [ 44.235, 39.276 ] } },
{ "type": "Feature", "properties": { "ID": 5365, "date_decimal": 1978.0997716894976, "year": 1978, "month": 2, "day": 7, "latitude": 39.016, "longitude": 43.289, "mag": 4.36, "place": "6 km W of Erci?, Turkey", "zone_id": 13, "cluster_id": 84, "shock_type": "AS", "mainshock_zone": 51, "same_zone": 0, "days_difference": 440 }, "geometry": { "type": "Point", "coordinates": [ 43.289, 39.016 ] } },
{ "type": "Feature", "properties": { "ID": 5364, "date_decimal": 1978.1052511415523, "year": 1978, "month": 2, "day": 9, "latitude": 37.166, "longitude": 36.756, "mag": 4.67, "place": "1 km E of Nurda??, Turkey", "zone_id": 999, "cluster_id": 0, "shock_type": "MS", "mainshock_zone": 999, "same_zone": 1, "days_difference": 442 }, "geometry": { "type": "Point", "coordinates": [ 36.756, 37.166 ] } },
{ "type": "Feature", "properties": { "ID": 5363, "date_decimal": 1978.1079908675799, "year": 1978, "month": 2, "day": 10, "latitude": 35.592, "longitude": 26.83, "mag": 4.15, "place": "21 km NNW of Fry, Greece", "zone_id": 83, "cluster_id": 0, "shock_type": "MS", "mainshock_zone": 83, "same_zone": 1, "days_difference": 443 }, "geometry": { "type": "Point", "coordinates": [ 26.83, 35.592 ] } },
{ "type": "Feature", "properties": { "ID": 5361, "date_decimal": 1978.1216894977167, "year": 1978, "month": 2, "day": 15, "latitude": 39.745, "longitude": 39.834, "mag": 4.77, "place": "12 km ENE of Cimin, Turkey", "zone_id": 2, "cluster_id": 95, "shock_type": "FS", "mainshock_zone": 2, "same_zone": 1, "days_difference": 448 }, "geometry": { "type": "Point", "coordinates": [ 39.834, 39.745 ] } },
{ "type": "Feature", "properties": { "ID": 5360, "date_decimal": 1978.1216894977167, "year": 1978, "month": 2, "day": 15, "latitude": 39.689, "longitude": 39.684, "mag": 4.67, "place": "2 km SSW of Cimin, Turkey", "zone_id": 2, "cluster_id": 95, "shock_type": "FS", "mainshock_zone": 2, "same_zone": 1, "days_difference": 448 }, "geometry": { "type": "Point", "coordinates": [ 39.684, 39.689 ] } },
{ "type": "Feature", "properties": { "ID": 5362, "date_decimal": 1978.1216894977167, "year": 1978, "month": 2, "day": 15, "latitude": 39.686, "longitude": 39.788, "mag": 4.98, "place": "7 km ESE of Cimin, Turkey", "zone_id": 2, "cluster_id": 0, "shock_type": "MS", "mainshock_zone": 2, "same_zone": 1, "days_difference": 448 }, "geometry": { "type": "Point", "coordinates": [ 39.788, 39.686 ] } },
{ "type": "Feature", "properties": { "ID": 5359, "date_decimal": 1978.1463470319634, "year": 1978, "month": 2, "day": 24, "latitude": 37.902, "longitude": 32.662, "mag": 4.77, "place": "15 km ENE of Konya, Turkey", "zone_id": 41, "cluster_id": 0, "shock_type": "MS", "mainshock_zone": 41, "same_zone": 1, "days_difference": 457 }, "geometry": { "type": "Point", "coordinates": [ 32.662, 37.902 ] } },
{ "type": "Feature", "properties": { "ID": 5358, "date_decimal": 1978.1666666666667, "year": 1978, "month": 3, "day": 1, "latitude": 35.967, "longitude": 27.134, "mag": 4.77, "place": "51 km N of Karpathos, Greece", "zone_id": 83, "cluster_id": 0, "shock_type": "MS", "mainshock_zone": 83, "same_zone": 1, "days_difference": 462 }, "geometry": { "type": "Point", "coordinates": [ 27.134, 35.967 ] } },
{ "type": "Feature", "properties": { "ID": 5357, "date_decimal": 1978.1666666666667, "year": 1978, "month": 3, "day": 1, "latitude": 40.974, "longitude": 42.895, "mag": 4.67, "place": "22 km SE of Ardahan, Turkey", "zone_id": 64, "cluster_id": 0, "shock_type": "MS", "mainshock_zone": 64, "same_zone": 1, "days_difference": 462 }, "geometry": { "type": "Point", "coordinates": [ 42.895, 40.974 ] } },
{ "type": "Feature", "properties": { "ID": 5356, "date_decimal": 1978.1913242009134, "year": 1978, "month": 3, "day": 10, "latitude": 38.106, "longitude": 32.529, "mag": 4.46, "place": "20 km SSE of Sarayönü, Turkey", "zone_id": 41, "cluster_id": 96, "shock_type": "AS", "mainshock_zone": 41, "same_zone": 1, "days_difference": 471 }, "geometry": { "type": "Point", "coordinates": [ 32.529, 38.106 ] } },
{ "type": "Feature", "properties": { "ID": 5355, "date_decimal": 1978.1995433789955, "year": 1978, "month": 3, "day": 13, "latitude": 37.848, "longitude": 26.861, "mag": 4.87, "place": "8 km NNW of Kokkári, Greece", "zone_id": 68, "cluster_id": 0, "shock_type": "MS", "mainshock_zone": 68, "same_zone": 1, "days_difference": 474 }, "geometry": { "type": "Point", "coordinates": [ 26.861, 37.848 ] } },
{ "type": "Feature", "properties": { "ID": 5354, "date_decimal": 1978.3607305936073, "year": 1978, "month": 5, "day": 11, "latitude": 40.087, "longitude": 29.537, "mag": 4.36, "place": "2 km ENE of ?negol, Turkey", "zone_id": 1, "cluster_id": 0, "shock_type": "MS", "mainshock_zone": 1, "same_zone": 1, "days_difference": 533 }, "geometry": { "type": "Point", "coordinates": [ 29.537, 40.087 ] } },
{ "type": "Feature", "properties": { "ID": 5353, "date_decimal": 1978.3853881278537, "year": 1978, "month": 5, "day": 20, "latitude": 40.417, "longitude": 42.643, "mag": 4.25, "place": "10 km NNE of Sar?kam??, Turkey", "zone_id": 64, "cluster_id": 0, "shock_type": "MS", "mainshock_zone": 64, "same_zone": 1, "days_difference": 542 }, "geometry": { "type": "Point", "coordinates": [ 42.643, 40.417 ] } },
{ "type": "Feature", "properties": { "ID": 5352, "date_decimal": 1978.4413242009134, "year": 1978, "month": 6, "day": 10, "latitude": 42.458, "longitude": 31.493, "mag": 4.56, "place": "108 km NW of Amasra, Turkey", "zone_id": 59, "cluster_id": 0, "shock_type": "MS", "mainshock_zone": 59, "same_zone": 1, "days_difference": 563 }, "geometry": { "type": "Point", "coordinates": [ 31.493, 42.458 ] } },
{ "type": "Feature", "properties": { "ID": 5351, "date_decimal": 1978.4550228310502, "year": 1978, "month": 6, "day": 15, "latitude": 40.846, "longitude": 27.695, "mag": 4.56, "place": "20 km ESE of Kumba?, Turkey", "zone_id": 8, "cluster_id": 0, "shock_type": "MS", "mainshock_zone": 8, "same_zone": 1, "days_difference": 568 }, "geometry": { "type": "Point", "coordinates": [ 27.695, 40.846 ] } },
{ "type": "Feature", "properties": { "ID": 5350, "date_decimal": 1978.4605022831051, "year": 1978, "month": 6, "day": 17, "latitude": 37.493, "longitude": 28.748, "mag": 4.98, "place": "10 km NW of Kale, Turkey", "zone_id": 27, "cluster_id": 0, "shock_type": "MS", "mainshock_zone": 27, "same_zone": 1, "days_difference": 570 }, "geometry": { "type": "Point", "coordinates": [ 28.748, 37.493 ] } },
{ "type": "Feature", "properties": { "ID": 5349, "date_decimal": 1978.4605022831051, "year": 1978, "month": 6, "day": 17, "latitude": 39.147, "longitude": 24.52, "mag": 4.46, "place": "27 km N of Skýros, Greece", "zone_id": 77, "cluster_id": 0, "shock_type": "MS", "mainshock_zone": 77, "same_zone": 1, "days_difference": 570 }, "geometry": { "type": "Point", "coordinates": [ 24.52, 39.147 ] } },
{ "type": "Feature", "properties": { "ID": 5348, "date_decimal": 1978.4878995433792, "year": 1978, "month": 6, "day": 27, "latitude": 41.131, "longitude": 43.973, "mag": 4.67, "place": "22 km WSW of Metsavan, Armenia", "zone_id": 47, "cluster_id": 0, "shock_type": "MS", "mainshock_zone": 47, "same_zone": 1, "days_difference": 580 }, "geometry": { "type": "Point", "coordinates": [ 43.973, 41.131 ] } },
{ "type": "Feature", "properties": { "ID": 5347, "date_decimal": 1978.5082191780823, "year": 1978, "month": 7, "day": 4, "latitude": 39.481, "longitude": 33.206, "mag": 5.08, "place": "19 km SW of Karakeçili, Turkey", "zone_id": 4, "cluster_id": 0, "shock_type": "MS", "mainshock_zone": 4, "same_zone": 1, "days_difference": 587 }, "geometry": { "type": "Point", "coordinates": [ 33.206, 39.481 ] } },
{ "type": "Feature", "properties": { "ID": 5346, "date_decimal": 1978.5712328767124, "year": 1978, "month": 7, "day": 27, "latitude": 39.175, "longitude": 24.493, "mag": 4.25, "place": "30 km NNW of Skýros, Greece", "zone_id": 77, "cluster_id": 97, "shock_type": "AS", "mainshock_zone": 77, "same_zone": 1, "days_difference": 610 }, "geometry": { "type": "Point", "coordinates": [ 24.493, 39.175 ] } },
{ "type": "Feature", "properties": { "ID": 5345, "date_decimal": 1978.5767123287671, "year": 1978, "month": 7, "day": 29, "latitude": 37.58, "longitude": 30.009, "mag": 4.77, "place": "23 km ENE of Ye?ilova, Turkey", "zone_id": 69, "cluster_id": 0, "shock_type": "MS", "mainshock_zone": 69, "same_zone": 1, "days_difference": 612 }, "geometry": { "type": "Point", "coordinates": [ 30.009, 37.58 ] } },
{ "type": "Feature", "properties": { "ID": 5344, "date_decimal": 1978.616210045662, "year": 1978, "month": 8, "day": 13, "latitude": 38.658, "longitude": 40.712, "mag": 4.77, "place": "17 km SE of Genç, Turkey", "zone_id": 30, "cluster_id": 0, "shock_type": "MS", "mainshock_zone": 30, "same_zone": 1, "days_difference": 627 }, "geometry": { "type": "Point", "coordinates": [ 40.712, 38.658 ] } },
{ "type": "Feature", "properties": { "ID": 5343, "date_decimal": 1978.6216894977167, "year": 1978, "month": 8, "day": 15, "latitude": 41.295, "longitude": 44.022, "mag": 4.98, "place": "20 km WNW of Metsavan, Armenia", "zone_id": 47, "cluster_id": 94, "shock_type": "AS", "mainshock_zone": 47, "same_zone": 1, "days_difference": 629 }, "geometry": { "type": "Point", "coordinates": [ 44.022, 41.295 ] } },
{ "type": "Feature", "properties": { "ID": 5342, "date_decimal": 1978.6408675799087, "year": 1978, "month": 8, "day": 22, "latitude": 36.398, "longitude": 27.643, "mag": 4.15, "place": "26 km NW of Émponas, Greece", "zone_id": 22, "cluster_id": 92, "shock_type": "AS", "mainshock_zone": 83, "same_zone": 0, "days_difference": 636 }, "geometry": { "type": "Point", "coordinates": [ 27.643, 36.398 ] } },
{ "type": "Feature", "properties": { "ID": 5341, "date_decimal": 1978.6408675799087, "year": 1978, "month": 8, "day": 22, "latitude": 41.953, "longitude": 43.916, "mag": 4.98, "place": "12 km SE of Agara, Georgia", "zone_id": 62, "cluster_id": 0, "shock_type": "MS", "mainshock_zone": 62, "same_zone": 1, "days_difference": 636 }, "geometry": { "type": "Point", "coordinates": [ 43.916, 41.953 ] } },
{ "type": "Feature", "properties": { "ID": 5340, "date_decimal": 1978.7077625570778, "year": 1978, "month": 9, "day": 16, "latitude": 40.482, "longitude": 25.594, "mag": 4.54, "place": "Aegean Sea", "zone_id": 82, "cluster_id": 0, "shock_type": "MS", "mainshock_zone": 82, "same_zone": 1, "days_difference": 661 }, "geometry": { "type": "Point", "coordinates": [ 25.594, 40.482 ] } },
{ "type": "Feature", "properties": { "ID": 5338, "date_decimal": 1978.7214611872148, "year": 1978, "month": 9, "day": 21, "latitude": 37.935, "longitude": 38.558, "mag": 4.77, "place": "12 km SSW of Sincik, Turkey", "zone_id": 30, "cluster_id": 98, "shock_type": "FS", "mainshock_zone": 29, "same_zone": 0, "days_difference": 666 }, "geometry": { "type": "Point", "coordinates": [ 38.558, 37.935 ] } },
{ "type": "Feature", "properties": { "ID": 5337, "date_decimal": 1978.7214611872148, "year": 1978, "month": 9, "day": 21, "latitude": 37.963, "longitude": 38.469, "mag": 4.36, "place": "15 km WSW of Sincik, Turkey", "zone_id": 30, "cluster_id": 98, "shock_type": "FS", "mainshock_zone": 29, "same_zone": 0, "days_difference": 666 }, "geometry": { "type": "Point", "coordinates": [ 38.469, 37.963 ] } },
{ "type": "Feature", "properties": { "ID": 5339, "date_decimal": 1978.7214611872148, "year": 1978, "month": 9, "day": 21, "latitude": 38.105, "longitude": 38.65, "mag": 4.87, "place": "8 km NNE of Sincik, Turkey", "zone_id": 29, "cluster_id": 0, "shock_type": "MS", "mainshock_zone": 29, "same_zone": 1, "days_difference": 666 }, "geometry": { "type": "Point", "coordinates": [ 38.65, 38.105 ] } },
{ "type": "Feature", "properties": { "ID": 5336, "date_decimal": 1978.7296803652969, "year": 1978, "month": 9, "day": 24, "latitude": 37.888, "longitude": 27.087, "mag": 4.7, "place": "14 km SSW of Özdere, Turkey", "zone_id": 68, "cluster_id": 0, "shock_type": "MS", "mainshock_zone": 68, "same_zone": 1, "days_difference": 669 }, "geometry": { "type": "Point", "coordinates": [ 27.087, 37.888 ] } },
{ "type": "Feature", "properties": { "ID": 5335, "date_decimal": 1978.7664383561644, "year": 1978, "month": 10, "day": 7, "latitude": 36.454, "longitude": 27.63, "mag": 4.7, "place": "25 km SW of Sými, Greece", "zone_id": 22, "cluster_id": 92, "shock_type": "AS", "mainshock_zone": 83, "same_zone": 0, "days_difference": 682 }, "geometry": { "type": "Point", "coordinates": [ 27.63, 36.454 ] } },
{ "type": "Feature", "properties": { "ID": 5334, "date_decimal": 1978.7801369863014, "year": 1978, "month": 10, "day": 12, "latitude": 40.995, "longitude": 33.283, "mag": 4.25, "place": "8 km NE of Bayramören, Turkey", "zone_id": 2, "cluster_id": 89, "shock_type": "AS", "mainshock_zone": 2, "same_zone": 1, "days_difference": 687 }, "geometry": { "type": "Point", "coordinates": [ 33.283, 40.995 ] } },
{ "type": "Feature", "properties": { "ID": 5333, "date_decimal": 1978.8020547945205, "year": 1978, "month": 10, "day": 20, "latitude": 40.823, "longitude": 25.371, "mag": 4.54, "place": "17 km SSW of Xylaganí, Greece", "zone_id": 55, "cluster_id": 0, "shock_type": "MS", "mainshock_zone": 55, "same_zone": 1, "days_difference": 695 }, "geometry": { "type": "Point", "coordinates": [ 25.371, 40.823 ] } },
{ "type": "Feature", "properties": { "ID": 5332, "date_decimal": 1978.8157534246575, "year": 1978, "month": 10, "day": 25, "latitude": 36.731, "longitude": 27.055, "mag": 4.25, "place": "8 km E of Kéfalos, Greece", "zone_id": 84, "cluster_id": 0, "shock_type": "MS", "mainshock_zone": 84, "same_zone": 1, "days_difference": 700 }, "geometry": { "type": "Point", "coordinates": [ 27.055, 36.731 ] } },
{ "type": "Feature", "properties": { "ID": 5331, "date_decimal": 1978.838812785388, "year": 1978, "month": 11, "day": 3, "latitude": 42.478, "longitude": 45.246, "mag": 4.67, "place": "39 km SW of Itum-Kali, Russia", "zone_id": 93, "cluster_id": 0, "shock_type": "MS", "mainshock_zone": 93, "same_zone": 1, "days_difference": 709 }, "geometry": { "type": "Point", "coordinates": [ 45.246, 42.478 ] } },
{ "type": "Feature", "properties": { "ID": 5330, "date_decimal": 1978.8607305936073, "year": 1978, "month": 11, "day": 11, "latitude": 38.092, "longitude": 38.478, "mag": 4.25, "place": "13 km WNW of Sincik, Turkey", "zone_id": 999, "cluster_id": 98, "shock_type": "AS", "mainshock_zone": 29, "same_zone": 0, "days_difference": 717 }, "geometry": { "type": "Point", "coordinates": [ 38.478, 38.092 ] } },
{ "type": "Feature", "properties": { "ID": 5329, "date_decimal": 1978.8634703196346, "year": 1978, "month": 11, "day": 12, "latitude": 37.292, "longitude": 24.913, "mag": 4.36, "place": "12 km SSW of Vári, Greece", "zone_id": 73, "cluster_id": 0, "shock_type": "MS", "mainshock_zone": 73, "same_zone": 1, "days_difference": 718 }, "geometry": { "type": "Point", "coordinates": [ 24.913, 37.292 ] } },
{ "type": "Feature", "properties": { "ID": 5328, "date_decimal": 1978.8990867579907, "year": 1978, "month": 11, "day": 25, "latitude": 39.239, "longitude": 43.332, "mag": 4.77, "place": "23 km N of Erci?, Turkey", "zone_id": 51, "cluster_id": 84, "shock_type": "AS", "mainshock_zone": 51, "same_zone": 1, "days_difference": 731 }, "geometry": { "type": "Point", "coordinates": [ 43.332, 39.239 ] } },
{ "type": "Feature", "properties": { "ID": 5327, "date_decimal": 1978.907305936073, "year": 1978, "month": 11, "day": 28, "latitude": 36.162, "longitude": 26.371, "mag": 5.18, "place": "43 km S of Astypálaia, Greece", "zone_id": 22, "cluster_id": 0, "shock_type": "MS", "mainshock_zone": 22, "same_zone": 1, "days_difference": 734 }, "geometry": { "type": "Point", "coordinates": [ 26.371, 36.162 ] } },
{ "type": "Feature", "properties": { "ID": 5326, "date_decimal": 1978.924885844749, "year": 1978, "month": 12, "day": 4, "latitude": 38.07, "longitude": 37.468, "mag": 5.28, "place": "12 km NNE of Nurhak, Turkey", "zone_id": 10, "cluster_id": 0, "shock_type": "MS", "mainshock_zone": 10, "same_zone": 1, "days_difference": 740 }, "geometry": { "type": "Point", "coordinates": [ 37.468, 38.07 ] } },
{ "type": "Feature", "properties": { "ID": 5325, "date_decimal": 1978.9303652968038, "year": 1978, "month": 12, "day": 6, "latitude": 40.497, "longitude": 34.987, "mag": 4.87, "place": "6 km SSE of Çorum, Turkey", "zone_id": 34, "cluster_id": 0, "shock_type": "MS", "mainshock_zone": 34, "same_zone": 1, "days_difference": 742 }, "geometry": { "type": "Point", "coordinates": [ 34.987, 40.497 ] } },
{ "type": "Feature", "properties": { "ID": 5324, "date_decimal": 1979.0109589041097, "year": 1979, "month": 1, "day": 5, "latitude": 39.854, "longitude": 25.666, "mag": 4.36, "place": "34 km W of Bozcaada, Turkey", "zone_id": 24, "cluster_id": 0, "shock_type": "MS", "mainshock_zone": 24, "same_zone": 1, "days_difference": 772 }, "geometry": { "type": "Point", "coordinates": [ 25.666, 39.854 ] } },
{ "type": "Feature", "properties": { "ID": 5323, "date_decimal": 1979.0328767123287, "year": 1979, "month": 1, "day": 13, "latitude": 35.889, "longitude": 30.984, "mag": 4.36, "place": "78 km SE of Beykonak, Turkey", "zone_id": 16, "cluster_id": 0, "shock_type": "MS", "mainshock_zone": 16, "same_zone": 1, "days_difference": 780 }, "geometry": { "type": "Point", "coordinates": [ 30.984, 35.889 ] } },
{ "type": "Feature", "properties": { "ID": 5322, "date_decimal": 1979.0493150684931, "year": 1979, "month": 1, "day": 19, "latitude": 39.845, "longitude": 39.556, "mag": 5.08, "place": "13 km NNE of Erzincan, Turkey", "zone_id": 2, "cluster_id": 0, "shock_type": "MS", "mainshock_zone": 2, "same_zone": 1, "days_difference": 786 }, "geometry": { "type": "Point", "coordinates": [ 39.556, 39.845 ] } },
{ "type": "Feature", "properties": { "ID": 5321, "date_decimal": 1979.0520547945205, "year": 1979, "month": 1, "day": 20, "latitude": 40.096, "longitude": 39.56, "mag": 4.98, "place": "11 km ESE of Kelkit, Turkey", "zone_id": 53, "cluster_id": 100, "shock_type": "AS", "mainshock_zone": 2, "same_zone": 0, "days_difference": 787 }, "geometry": { "type": "Point", "coordinates": [ 39.56, 40.096 ] } },
{ "type": "Feature", "properties": { "ID": 5320, "date_decimal": 1979.0997716894976, "year": 1979, "month": 2, "day": 7, "latitude": 38.359, "longitude": 36.322, "mag": 4.15, "place": "13 km NE of Tufanbeyli, Turkey", "zone_id": 9, "cluster_id": 0, "shock_type": "MS", "mainshock_zone": 9, "same_zone": 1, "days_difference": 805 }, "geometry": { "type": "Point", "coordinates": [ 36.322, 38.359 ] } },
{ "type": "Feature", "properties": { "ID": 5319, "date_decimal": 1979.1244292237443, "year": 1979, "month": 2, "day": 16, "latitude": 36.732, "longitude": 25.815, "mag": 4.56, "place": "13 km SW of Amorgós, Greece", "zone_id": 70, "cluster_id": 0, "shock_type": "MS", "mainshock_zone": 70, "same_zone": 1, "days_difference": 814 }, "geometry": { "type": "Point", "coordinates": [ 25.815, 36.732 ] } },
{ "type": "Feature", "properties": { "ID": 5318, "date_decimal": 1979.1326484018264, "year": 1979, "month": 2, "day": 19, "latitude": 36.043, "longitude": 31.088, "mag": 4.36, "place": "71 km SE of Tekirova, Turkey", "zone_id": 16, "cluster_id": 99, "shock_type": "AS", "mainshock_zone": 16, "same_zone": 1, "days_difference": 817 }, "geometry": { "type": "Point", "coordinates": [ 31.088, 36.043 ] } },
{ "type": "Feature", "properties": { "ID": 5317, "date_decimal": 1979.157305936073, "year": 1979, "month": 2, "day": 28, "latitude": 36.833, "longitude": 28.354, "mag": 4.25, "place": "7 km ESE of Marmaris, Turkey", "zone_id": 84, "cluster_id": 0, "shock_type": "MS", "mainshock_zone": 84, "same_zone": 1, "days_difference": 826 }, "geometry": { "type": "Point", "coordinates": [ 28.354, 36.833 ] } },
{ "type": "Feature", "properties": { "ID": 5316, "date_decimal": 1979.2214611872148, "year": 1979, "month": 3, "day": 21, "latitude": 37.794, "longitude": 39.015, "mag": 4.56, "place": "17 km S of Gerger, Turkey", "zone_id": 103, "cluster_id": 0, "shock_type": "MS", "mainshock_zone": 103, "same_zone": 1, "days_difference": 847 }, "geometry": { "type": "Point", "coordinates": [ 39.015, 37.794 ] } },
{ "type": "Feature", "properties": { "ID": 5315, "date_decimal": 1979.2582191780823, "year": 1979, "month": 4, "day": 4, "latitude": 36.017, "longitude": 30.689, "mag": 4.46, "place": "48 km SE of Beykonak, Turkey", "zone_id": 16, "cluster_id": 0, "shock_type": "MS", "mainshock_zone": 16, "same_zone": 1, "days_difference": 861 }, "geometry": { "type": "Point", "coordinates": [ 30.689, 36.017 ] } },
{ "type": "Feature", "properties": { "ID": 5314, "date_decimal": 1979.277397260274, "year": 1979, "month": 4, "day": 11, "latitude": 39.111, "longitude": 43.901, "mag": 5.18, "place": "47 km E of Erci?, Turkey", "zone_id": 51, "cluster_id": 84, "shock_type": "AS", "mainshock_zone": 51, "same_zone": 1, "days_difference": 868 }, "geometry": { "type": "Point", "coordinates": [ 43.901, 39.111 ] } },
{ "type": "Feature", "properties": { "ID": 5313, "date_decimal": 1979.277397260274, "year": 1979, "month": 4, "day": 11, "latitude": 39.182, "longitude": 41.551, "mag": 4.46, "place": "8 km E of Varto, Turkey", "zone_id": 45, "cluster_id": 0, "shock_type": "MS", "mainshock_zone": 45, "same_zone": 1, "days_difference": 868 }, "geometry": { "type": "Point", "coordinates": [ 41.551, 39.182 ] } },
{ "type": "Feature", "properties": { "ID": 5312, "date_decimal": 1979.3157534246575, "year": 1979, "month": 4, "day": 25, "latitude": 41.159, "longitude": 44.001, "mag": 4.77, "place": "19 km WSW of Metsavan, Armenia", "zone_id": 47, "cluster_id": 0, "shock_type": "MS", "mainshock_zone": 47, "same_zone": 1, "days_difference": 882 }, "geometry": { "type": "Point", "coordinates": [ 44.001, 41.159 ] } },
{ "type": "Feature", "properties": { "ID": 5311, "date_decimal": 1979.3184931506848, "year": 1979, "month": 4, "day": 26, "latitude": 37.63, "longitude": 36.127, "mag": 4.87, "place": "20 km WNW of And?r?n, Turkey", "zone_id": 10, "cluster_id": 0, "shock_type": "MS", "mainshock_zone": 10, "same_zone": 1, "days_difference": 883 }, "geometry": { "type": "Point", "coordinates": [ 36.127, 37.63 ] } },
{ "type": "Feature", "properties": { "ID": 5310, "date_decimal": 1979.3634703196346, "year": 1979, "month": 5, "day": 12, "latitude": 38.253, "longitude": 25.947, "mag": 4.15, "place": "17 km WSW of Thymianá, Greece", "zone_id": 71, "cluster_id": 0, "shock_type": "MS", "mainshock_zone": 71, "same_zone": 1, "days_difference": 899 }, "geometry": { "type": "Point", "coordinates": [ 25.947, 38.253 ] } },
{ "type": "Feature", "properties": { "ID": 5309, "date_decimal": 1979.3689497716894, "year": 1979, "month": 5, "day": 14, "latitude": 39.163, "longitude": 24.386, "mag": 4.7, "place": "32 km NNW of Skýros, Greece", "zone_id": 77, "cluster_id": 0, "shock_type": "MS", "mainshock_zone": 77, "same_zone": 1, "days_difference": 901 }, "geometry": { "type": "Point", "coordinates": [ 24.386, 39.163 ] } },
{ "type": "Feature", "properties": { "ID": 5308, "date_decimal": 1979.3826484018264, "year": 1979, "month": 5, "day": 19, "latitude": 38.72, "longitude": 25.602, "mag": 4.46, "place": "20 km N of Psará, Greece", "zone_id": 75, "cluster_id": 0, "shock_type": "MS", "mainshock_zone": 75, "same_zone": 1, "days_difference": 906 }, "geometry": { "type": "Point", "coordinates": [ 25.602, 38.72 ] } },
{ "type": "Feature", "properties": { "ID": 5307, "date_decimal": 1979.407305936073, "year": 1979, "month": 5, "day": 28, "latitude": 36.409, "longitude": 31.751, "mag": 6.11, "place": "22 km SSW of Türkler, Turkey", "zone_id": 17, "cluster_id": 0, "shock_type": "MS", "mainshock_zone": 17, "same_zone": 1, "days_difference": 915 }, "geometry": { "type": "Point", "coordinates": [ 31.751, 36.409 ] } },
{ "type": "Feature", "properties": { "ID": 5306, "date_decimal": 1979.4100456621004, "year": 1979, "month": 5, "day": 29, "latitude": 40.959, "longitude": 33.549, "mag": 4.25, "place": "7 km WNW of Ilgaz, Turkey", "zone_id": 2, "cluster_id": 0, "shock_type": "MS", "mainshock_zone": 2, "same_zone": 1, "days_difference": 916 }, "geometry": { "type": "Point", "coordinates": [ 33.549, 40.959 ] } },
{ "type": "Feature", "properties": { "ID": 5305, "date_decimal": 1979.4522831050228, "year": 1979, "month": 6, "day": 14, "latitude": 38.808, "longitude": 26.527, "mag": 6.01, "place": "19 km N of Karaburun, Turkey", "zone_id": 43, "cluster_id": 0, "shock_type": "MS", "mainshock_zone": 43, "same_zone": 1, "days_difference": 932 }, "geometry": { "type": "Point", "coordinates": [ 26.527, 38.808 ] } },
{ "type": "Feature", "properties": { "ID": 5304, "date_decimal": 1979.4522831050228, "year": 1979, "month": 6, "day": 14, "latitude": 38.774, "longitude": 26.65, "mag": 4.36, "place": "14 km NW of Foça, Turkey", "zone_id": 43, "cluster_id": 103, "shock_type": "FS", "mainshock_zone": 43, "same_zone": 1, "days_difference": 932 }, "geometry": { "type": "Point", "coordinates": [ 26.65, 38.774 ] } },
{ "type": "Feature", "properties": { "ID": 5303, "date_decimal": 1979.4550228310502, "year": 1979, "month": 6, "day": 15, "latitude": 38.772, "longitude": 26.535, "mag": 4.15, "place": "15 km N of Karaburun, Turkey", "zone_id": 43, "cluster_id": 103, "shock_type": "AS", "mainshock_zone": 43, "same_zone": 1, "days_difference": 933 }, "geometry": { "type": "Point", "coordinates": [ 26.535, 38.772 ] } },
{ "type": "Feature", "properties": { "ID": 5302, "date_decimal": 1979.4577625570778, "year": 1979, "month": 6, "day": 16, "latitude": 38.748, "longitude": 26.633, "mag": 5.41, "place": "13 km NW of Foça, Turkey", "zone_id": 43, "cluster_id": 103, "shock_type": "AS", "mainshock_zone": 43, "same_zone": 1, "days_difference": 934 }, "geometry": { "type": "Point", "coordinates": [ 26.633, 38.748 ] } },
{ "type": "Feature", "properties": { "ID": 5301, "date_decimal": 1979.4605022831051, "year": 1979, "month": 6, "day": 17, "latitude": 38.844, "longitude": 26.65, "mag": 4.46, "place": "20 km NW of Yenifoça, Turkey", "zone_id": 43, "cluster_id": 103, "shock_type": "AS", "mainshock_zone": 43, "same_zone": 1, "days_difference": 935 }, "geometry": { "type": "Point", "coordinates": [ 26.65, 38.844 ] } },
{ "type": "Feature", "properties": { "ID": 5300, "date_decimal": 1979.4632420091325, "year": 1979, "month": 6, "day": 18, "latitude": 38.716, "longitude": 26.588, "mag": 4.77, "place": "11 km NE of Karaburun, Turkey", "zone_id": 43, "cluster_id": 103, "shock_type": "AS", "mainshock_zone": 43, "same_zone": 1, "days_difference": 936 }, "geometry": { "type": "Point", "coordinates": [ 26.588, 38.716 ] } },
{ "type": "Feature", "properties": { "ID": 5299, "date_decimal": 1979.4659817351599, "year": 1979, "month": 6, "day": 19, "latitude": 38.72, "longitude": 26.568, "mag": 4.56, "place": "10 km NNE of Karaburun, Turkey", "zone_id": 43, "cluster_id": 103, "shock_type": "AS", "mainshock_zone": 43, "same_zone": 1, "days_difference": 937 }, "geometry": { "type": "Point", "coordinates": [ 26.568, 38.72 ] } },
{ "type": "Feature", "properties": { "ID": 5298, "date_decimal": 1979.4742009132422, "year": 1979, "month": 6, "day": 22, "latitude": 36.734, "longitude": 28.927, "mag": 4.25, "place": "2 km SW of Göcek, Turkey", "zone_id": 69, "cluster_id": 0, "shock_type": "MS", "mainshock_zone": 69, "same_zone": 1, "days_difference": 940 }, "geometry": { "type": "Point", "coordinates": [ 28.927, 36.734 ] } },
{ "type": "Feature", "properties": { "ID": 5297, "date_decimal": 1979.4824200913242, "year": 1979, "month": 6, "day": 25, "latitude": 35.953, "longitude": 29.028, "mag": 4.25, "place": "49 km SW of Kalkan, Turkey", "zone_id": 81, "cluster_id": 0, "shock_type": "MS", "mainshock_zone": 81, "same_zone": 1, "days_difference": 943 }, "geometry": { "type": "Point", "coordinates": [ 29.028, 35.953 ] } },
{ "type": "Feature", "properties": { "ID": 5296, "date_decimal": 1979.4851598173516, "year": 1979, "month": 6, "day": 26, "latitude": 39.111, "longitude": 24.382, "mag": 4.15, "place": "27 km NW of Skýros, Greece", "zone_id": 77, "cluster_id": 101, "shock_type": "AS", "mainshock_zone": 77, "same_zone": 1, "days_difference": 944 }, "geometry": { "type": "Point", "coordinates": [ 24.382, 39.111 ] } },
{ "type": "Feature", "properties": { "ID": 5295, "date_decimal": 1979.4851598173516, "year": 1979, "month": 6, "day": 26, "latitude": 38.879, "longitude": 26.77, "mag": 4.77, "place": "15 km WSW of Çandarl?, Turkey", "zone_id": 43, "cluster_id": 103, "shock_type": "AS", "mainshock_zone": 43, "same_zone": 1, "days_difference": 944 }, "geometry": { "type": "Point", "coordinates": [ 26.77, 38.879 ] } },
{ "type": "Feature", "properties": { "ID": 5294, "date_decimal": 1979.4906392694065, "year": 1979, "month": 6, "day": 28, "latitude": 40.782, "longitude": 31.834, "mag": 4.77, "place": "16 km W of Yeniça?a, Turkey", "zone_id": 8, "cluster_id": 0, "shock_type": "MS", "mainshock_zone": 8, "same_zone": 1, "days_difference": 946 }, "geometry": { "type": "Point", "coordinates": [ 31.834, 40.782 ] } },
{ "type": "Feature", "properties": { "ID": 5293, "date_decimal": 1979.5465753424658, "year": 1979, "month": 7, "day": 18, "latitude": 39.672, "longitude": 28.66, "mag": 5.39, "place": "9 km NNE of Dursunbey, Turkey", "zone_id": 26, "cluster_id": 0, "shock_type": "MS", "mainshock_zone": 26, "same_zone": 1, "days_difference": 966 }, "geometry": { "type": "Point", "coordinates": [ 28.66, 39.672 ] } },
{ "type": "Feature", "properties": { "ID": 5292, "date_decimal": 1979.5630136986301, "year": 1979, "month": 7, "day": 24, "latitude": 39.009, "longitude": 27.805, "mag": 4.54, "place": "10 km NNW of Akhisar, Turkey", "zone_id": 21, "cluster_id": 0, "shock_type": "MS", "mainshock_zone": 21, "same_zone": 1, "days_difference": 972 }, "geometry": { "type": "Point", "coordinates": [ 27.805, 39.009 ] } },
{ "type": "Feature", "properties": { "ID": 5291, "date_decimal": 1979.5821917808219, "year": 1979, "month": 7, "day": 31, "latitude": 38.902, "longitude": 38.786, "mag": 4.36, "place": "7 km ESE of A??n, Turkey", "zone_id": 33, "cluster_id": 0, "shock_type": "MS", "mainshock_zone": 33, "same_zone": 1, "days_difference": 979 }, "geometry": { "type": "Point", "coordinates": [ 38.786, 38.902 ] } }
]
}
